{"type":"FeatureCollection","features":[{"type":"Feature","properties":{"name":"Texas"},"geometry":{"type":"MultiPolygon","coordinates":[[[[-100.50025,36.49987],[-100.00041,36.49992],[-100.00038,34.56049],[-99.99258,34.55951],[-99.972,34.56205],[-99.95907,34.57131],[-99.9547,34.57819],[-99.94566,34.57919],[-99.92401,34.57555],[-99.91767,34.56772],[-99.8866,34.54895],[-99.8804,34.54192],[-99.87666,34.53987],[-99.87327,34.53279],[-99.86587,34.52384],[-99.85338,34.51172],[-99.83473,34.50174],[-99.82631,34.49058],[-99.8234,34.48333],[-99.81231,34.47348],[-99.80131,34.45753],[-99.75934,34.42396],[-99.74649,34.41656],[-99.72753,34.40959],[-99.71987,34.4052],[-99.71786,34.40328],[-99.71278,34.38841],[-99.70578,34.38559],[-99.69646,34.37785],[-99.67944,34.37782],[-99.66541,34.37338],[-99.653,34.37562],[-99.65081,34.37288],[-99.64162,34.37418],[-99.6312,34.37093],[-99.61914,34.37133],[-99.61669,34.37071],[-99.61664,34.3694],[-99.60958,34.3692],[-99.5964,34.37666],[-99.58708,34.38576],[-99.58285,34.39464],[-99.58255,34.4104],[-99.57962,34.41602],[-99.57366,34.41723],[-99.54914,34.41251],[-99.53314,34.41154],[-99.52583,34.41289],[-99.50422,34.41061],[-99.48722,34.39758],[-99.47915,34.39508],[-99.47139,34.39602],[-99.46591,34.39426],[-99.46395,34.38341],[-99.46078,34.38026],[-99.45703,34.38083],[-99.45335,34.38788],[-99.44753,34.37923],[-99.43585,34.36968],[-99.42948,34.37066],[-99.4257,34.38162],[-99.42179,34.38121],[-99.4092,34.37259],[-99.40392,34.37255],[-99.39702,34.37807],[-99.39401,34.39968],[-99.38498,34.4063],[-99.38896,34.40991],[-99.39543,34.40787],[-99.39754,34.40933],[-99.39362,34.41492],[-99.39636,34.41925],[-99.39076,34.4222],[-99.39504,34.42744],[-99.3935,34.43212],[-99.39422,34.44162],[-99.37764,34.45821],[-99.36144,34.45573],[-99.35803,34.44977],[-99.35642,34.44144],[-99.34381,34.43183],[-99.33414,34.42762],[-99.32643,34.41896],[-99.32127,34.41673],[-99.3204,34.40748],[-99.31061,34.40891],[-99.29664,34.41367],[-99.29085,34.41137],[-99.28181,34.40153],[-99.27513,34.40101],[-99.26949,34.40306],[-99.26447,34.4015],[-99.26069,34.39723],[-99.26179,34.39242],[-99.26443,34.39036],[-99.27494,34.38772],[-99.27454,34.38428],[-99.27008,34.38073],[-99.26342,34.37894],[-99.25811,34.37241],[-99.25524,34.37216],[-99.2511,34.37464],[-99.24682,34.37368],[-99.24541,34.37027],[-99.2481,34.36863],[-99.24821,34.36521],[-99.24466,34.3636],[-99.23729,34.36602],[-99.23738,34.36005],[-99.23502,34.35613],[-99.23569,34.35148],[-99.23284,34.34712],[-99.22126,34.34445],[-99.21264,34.34761],[-99.21247,34.34558],[-99.21681,34.34374],[-99.21736,34.34211],[-99.21614,34.33802],[-99.20838,34.33036],[-99.208,34.3244],[-99.20357,34.32264],[-99.1949,34.3239],[-99.20391,34.30424],[-99.20041,34.30063],[-99.19611,34.3026],[-99.19419,34.30195],[-99.19268,34.29642],[-99.19763,34.2934],[-99.20838,34.29466],[-99.21047,34.28832],[-99.2069,34.28272],[-99.19757,34.28087],[-99.19605,34.27868],[-99.19531,34.27183],[-99.19877,34.26817],[-99.20601,34.26482],[-99.20782,34.26079],[-99.20346,34.25814],[-99.1993,34.26017],[-99.19484,34.26003],[-99.19257,34.25766],[-99.19656,34.24581],[-99.19243,34.23328],[-99.19359,34.22228],[-99.18952,34.2165],[-99.18644,34.2162],[-99.1826,34.21926],[-99.18021,34.22572],[-99.17864,34.22601],[-99.17555,34.22332],[-99.17473,34.21174],[-99.16097,34.20825],[-99.15251,34.20958],[-99.13973,34.21725],[-99.13677,34.21748],[-99.13328,34.21493],[-99.12894,34.20442],[-99.12382,34.20198],[-99.11947,34.2038],[-99.11165,34.20378],[-99.10944,34.2054],[-99.1004,34.20501],[-99.10081,34.21112],[-99.09089,34.20918],[-99.08198,34.21276],[-99.06968,34.20865],[-99.06317,34.20188],[-99.05784,34.20091],[-99.05174,34.20259],[-99.04286,34.19737],[-99.0404,34.19794],[-99.0384,34.2007],[-99.03027,34.19574],[-99.02247,34.19998],[-99.0216,34.20385],[-99.01982,34.20359],[-99.02166,34.2043],[-99.02182,34.20644],[-99.01937,34.20756],[-99.01297,34.20325],[-99.00696,34.2079],[-98.99928,34.21813],[-98.9943,34.22002],[-98.98902,34.21954],[-98.98317,34.21665],[-98.97258,34.2031],[-98.96737,34.20371],[-98.95847,34.20963],[-98.94812,34.19659],[-98.94248,34.19685],[-98.93416,34.19299],[-98.93424,34.18692],[-98.93207,34.18306],[-98.92954,34.18217],[-98.92511,34.18468],[-98.91416,34.17141],[-98.907,34.17278],[-98.90071,34.1718],[-98.89501,34.16113],[-98.90102,34.1583],[-98.90133,34.1553],[-98.89866,34.15167],[-98.89886,34.1494],[-98.89595,34.14743],[-98.89037,34.14786],[-98.89015,34.15237],[-98.88076,34.1555],[-98.87134,34.14801],[-98.86429,34.14862],[-98.85832,34.14717],[-98.85052,34.15011],[-98.848,34.14475],[-98.84433,34.14322],[-98.83419,34.14271],[-98.82575,34.14475],[-98.81141,34.13896],[-98.80332,34.13763],[-98.79758,34.13925],[-98.7939,34.13656],[-98.7788,34.13354],[-98.77493,34.13039],[-98.76898,34.12889],[-98.76358,34.12247],[-98.75952,34.12365],[-98.75447,34.11989],[-98.74575,34.11836],[-98.74278,34.11528],[-98.71857,34.12044],[-98.69762,34.12777],[-98.68946,34.13339],[-98.67385,34.13931],[-98.67111,34.14336],[-98.66333,34.1468],[-98.65864,34.15221],[-98.65903,34.15694],[-98.65349,34.16263],[-98.64194,34.16309],[-98.62526,34.15824],[-98.62236,34.15187],[-98.61348,34.14881],[-98.60109,34.15259],[-98.59751,34.15219],[-98.59388,34.15015],[-98.59069,34.14443],[-98.57933,34.14103],[-98.56884,34.13498],[-98.56629,34.12717],[-98.55595,34.11596],[-98.54565,34.10841],[-98.54249,34.10744],[-98.53871,34.10855],[-98.53108,34.10063],[-98.5281,34.09471],[-98.50742,34.07736],[-98.50431,34.07223],[-98.49391,34.07009],[-98.48859,34.06617],[-98.48699,34.06283],[-98.48372,34.06212],[-98.47181,34.0655],[-98.46527,34.07385],[-98.45311,34.07245],[-98.44853,34.0737],[-98.44616,34.07571],[-98.44407,34.08173],[-98.44111,34.08394],[-98.43012,34.08566],[-98.41953,34.08231],[-98.41438,34.08509],[-98.40972,34.09229],[-98.41102,34.10057],[-98.40734,34.10149],[-98.40131,34.09868],[-98.39936,34.10072],[-98.39841,34.11873],[-98.3965,34.12509],[-98.39784,34.1255],[-98.39212,34.1288],[-98.38501,34.12816],[-98.38112,34.12997],[-98.38301,34.13805],[-98.37824,34.14515],[-98.37164,34.1506],[-98.37069,34.15526],[-98.35944,34.15614],[-98.33423,34.15198],[-98.32388,34.14857],[-98.31207,34.14082],[-98.28949,34.13241],[-98.27314,34.13297],[-98.26686,34.12984],[-98.26053,34.12892],[-98.23887,34.13325],[-98.20224,34.1169],[-98.17141,34.1142],[-98.16847,34.11442],[-98.15403,34.12292],[-98.13125,34.14835],[-98.12061,34.15456],[-98.11512,34.15517],[-98.10926,34.15327],[-98.10383,34.14808],[-98.10735,34.1329],[-98.10595,34.12873],[-98.10703,34.12417],[-98.10381,34.11208],[-98.11911,34.09349],[-98.12125,34.08151],[-98.12037,34.07331],[-98.1174,34.06582],[-98.10741,34.05466],[-98.10033,34.04978],[-98.09007,34.04594],[-98.09459,34.04159],[-98.10477,34.03937],[-98.10783,34.03603],[-98.10087,34.02276],[-98.09476,34.01675],[-98.09328,34.01184],[-98.08874,34.00563],[-98.08379,34.00256],[-98.0395,33.99337],[-98.01519,33.99426],[-97.98087,34.00225],[-97.97723,34.00041],[-97.96747,33.98834],[-97.96322,33.98765],[-97.95194,33.99094],[-97.94831,33.98744],[-97.95147,33.97459],[-97.95811,33.95771],[-97.96313,33.95093],[-97.97435,33.94401],[-97.97418,33.93998],[-97.97176,33.93739],[-97.96295,33.93623],[-97.95449,33.93238],[-97.95341,33.92895],[-97.95484,33.9219],[-97.95904,33.91555],[-97.96405,33.91234],[-97.97903,33.91152],[-97.98502,33.90043],[-97.98508,33.89837],[-97.97817,33.88998],[-97.96695,33.88198],[-97.95621,33.87858],[-97.94155,33.87886],[-97.93262,33.87686],[-97.89997,33.86013],[-97.89464,33.85607],[-97.87265,33.84894],[-97.86554,33.84926],[-97.83532,33.85745],[-97.8186,33.87228],[-97.80651,33.87622],[-97.80342,33.87941],[-97.8007,33.88992],[-97.79797,33.89249],[-97.79263,33.89493],[-97.78643,33.89011],[-97.78445,33.89026],[-97.78069,33.8963],[-97.78234,33.90761],[-97.77767,33.91192],[-97.76374,33.91426],[-97.75954,33.91781],[-97.75932,33.92428],[-97.76188,33.9318],[-97.76032,33.93366],[-97.7539,33.93601],[-97.73468,33.93519],[-97.72209,33.94268],[-97.70985,33.95471],[-97.69242,33.98282],[-97.68463,33.98771],[-97.67169,33.9904],[-97.6564,33.98856],[-97.63641,33.98205],[-97.62032,33.97223],[-97.61168,33.96421],[-97.60529,33.96209],[-97.59891,33.95566],[-97.59208,33.95435],[-97.59177,33.94987],[-97.59573,33.94066],[-97.5929,33.93312],[-97.59453,33.9315],[-97.59717,33.91649],[-97.59161,33.90607],[-97.58523,33.90145],[-97.56542,33.89699],[-97.5554,33.89699],[-97.53834,33.90315],[-97.52285,33.91206],[-97.49868,33.91684],[-97.48589,33.91611],[-97.46307,33.90438],[-97.45397,33.89575],[-97.45144,33.88571],[-97.45228,33.87138],[-97.45609,33.85943],[-97.46126,33.8504],[-97.46323,33.84172],[-97.45787,33.83206],[-97.45434,33.82866],[-97.43915,33.8219],[-97.42681,33.81897],[-97.3874,33.81664],[-97.37681,33.81763],[-97.36862,33.82139],[-97.35569,33.83258],[-97.34487,33.84818],[-97.33906,33.86108],[-97.33681,33.87476],[-97.33051,33.87425],[-97.33444,33.86204],[-97.3333,33.85599],[-97.3305,33.85461],[-97.3268,33.85599],[-97.31683,33.86423],[-97.31147,33.87086],[-97.30956,33.87597],[-97.30973,33.88679],[-97.30424,33.88524],[-97.28852,33.87039],[-97.2798,33.86461],[-97.27216,33.86246],[-97.25604,33.86307],[-97.24909,33.87492],[-97.24424,33.90288],[-97.23357,33.90739],[-97.22706,33.91341],[-97.21349,33.91328],[-97.19299,33.90472],[-97.183,33.89635],[-97.17974,33.88836],[-97.1785,33.8785],[-97.16714,33.84952],[-97.16693,33.84326],[-97.16878,33.8402],[-97.17681,33.83543],[-97.1956,33.8311],[-97.20532,33.81922],[-97.2053,33.80017],[-97.19657,33.78796],[-97.18981,33.77444],[-97.19031,33.76906],[-97.19439,33.76094],[-97.19159,33.758],[-97.181,33.75258],[-97.1765,33.74213],[-97.16044,33.72745],[-97.14555,33.72093],[-97.12789,33.71729],[-97.11228,33.71905],[-97.10385,33.72308],[-97.09516,33.72984],[-97.08646,33.7433],[-97.08467,33.75324],[-97.08505,33.76464],[-97.0944,33.79465],[-97.09145,33.80482],[-97.07761,33.8125],[-97.04791,33.81746],[-97.04841,33.82847],[-97.05457,33.83502],[-97.06528,33.83859],[-97.0892,33.84204],[-97.09038,33.84579],[-97.08772,33.85275],[-97.07185,33.85964],[-97.06275,33.85928],[-97.0557,33.85509],[-97.04626,33.83951],[-97.04069,33.8375],[-97.02424,33.84393],[-97.00015,33.86683],[-96.9884,33.88149],[-96.9838,33.89159],[-96.98512,33.90644],[-96.98829,33.91795],[-96.99503,33.9325],[-96.99577,33.94569],[-96.99416,33.94918],[-96.9885,33.95429],[-96.98122,33.95637],[-96.97907,33.95571],[-96.98088,33.95007],[-96.97961,33.94144],[-96.97666,33.93727],[-96.97298,33.93563],[-96.92422,33.95911],[-96.91654,33.95799],[-96.90675,33.94932],[-96.90138,33.93985],[-96.89664,33.9156],[-96.8971,33.90365],[-96.89551,33.89627],[-96.88311,33.86853],[-96.87559,33.86052],[-96.85804,33.84832],[-96.8508,33.84701],[-96.84249,33.85173],[-96.84041,33.86748],[-96.83764,33.87128],[-96.83218,33.87477],[-96.81088,33.87254],[-96.79482,33.86891],[-96.78495,33.86438],[-96.78129,33.86073],[-96.7771,33.84301],[-96.77131,33.83071],[-96.76827,33.8267],[-96.76228,33.82447],[-96.74818,33.8252],[-96.72454,33.8305],[-96.71255,33.83164],[-96.69938,33.83908],[-96.68906,33.85284],[-96.68492,33.86217],[-96.68215,33.87352],[-96.68349,33.88414],[-96.68115,33.89577],[-96.67385,33.9116],[-96.66748,33.91679],[-96.65725,33.91536],[-96.62835,33.89451],[-96.58826,33.89481],[-96.58543,33.88915],[-96.58984,33.88103],[-96.59714,33.87516],[-96.61193,33.86906],[-96.62812,33.85357],[-96.62993,33.84805],[-96.62862,33.84545],[-96.62256,33.8412],[-96.5918,33.83042],[-96.5727,33.81902],[-96.55059,33.81927],[-96.53299,33.82308],[-96.52681,33.8212],[-96.52297,33.817],[-96.51729,33.80567],[-96.51584,33.7878],[-96.51176,33.78146],[-96.50096,33.77284],[-96.48571,33.77308],[-96.46963,33.7759],[-96.45874,33.77521],[-96.45093,33.78045],[-96.44717,33.78116],[-96.43573,33.77991],[-96.42309,33.77637],[-96.41813,33.76998],[-96.41331,33.75686],[-96.40839,33.75106],[-96.36931,33.71641],[-96.36327,33.70113],[-96.36226,33.69184],[-96.35669,33.68782],[-96.34747,33.68636],[-96.34285,33.68709],[-96.33278,33.69336],[-96.32168,33.69487],[-96.31615,33.70004],[-96.31003,33.71015],[-96.30658,33.72142],[-96.3081,33.73395],[-96.3033,33.74996],[-96.29525,33.76427],[-96.29239,33.76647],[-96.28847,33.76508],[-96.27682,33.76976],[-96.26969,33.7684],[-96.24913,33.75965],[-96.22972,33.74827],[-96.22135,33.7474],[-96.19748,33.75271],[-96.17822,33.76065],[-96.17036,33.76869],[-96.16738,33.77492],[-96.16277,33.78629],[-96.16376,33.78749],[-96.1608,33.79597],[-96.16193,33.79983],[-96.16004,33.81056],[-96.15674,33.8134],[-96.16385,33.81297],[-96.17037,33.80098],[-96.17572,33.8024],[-96.1791,33.81043],[-96.1762,33.81447],[-96.1715,33.81483],[-96.16659,33.81789],[-96.15866,33.81857],[-96.15067,33.8171],[-96.14892,33.821],[-96.15168,33.83191],[-96.14979,33.83662],[-96.14678,33.83831],[-96.13883,33.83918],[-96.13132,33.83759],[-96.12423,33.84018],[-96.11002,33.83249],[-96.09944,33.83056],[-96.09746,33.83294],[-96.09744,33.8379],[-96.10135,33.84568],[-96.10024,33.84806],[-96.08455,33.8467],[-96.0485,33.83658],[-96.0354,33.84255],[-96.03216,33.84778],[-96.03018,33.85556],[-96.02564,33.85749],[-96.02224,33.85688],[-96.01975,33.85404],[-96.02319,33.84448],[-96.02294,33.84133],[-96.01631,33.84159],[-96.00533,33.84557],[-95.9987,33.85092],[-95.99633,33.85541],[-95.99495,33.86197],[-96.00221,33.86419],[-96.00511,33.86894],[-96.00333,33.87266],[-95.98878,33.86861],[-95.98492,33.86583],[-95.98414,33.86013],[-95.98616,33.85687],[-95.98495,33.85264],[-95.97202,33.85576],[-95.96963,33.858],[-95.95137,33.85731],[-95.94289,33.86065],[-95.93644,33.87179],[-95.93857,33.88039],[-95.93808,33.88747],[-95.93647,33.88825],[-95.9198,33.88314],[-95.91459,33.8793],[-95.90887,33.87843],[-95.90246,33.87398],[-95.90024,33.87037],[-95.89505,33.86923],[-95.88366,33.86235],[-95.87682,33.86163],[-95.87106,33.854],[-95.85661,33.85204],[-95.84886,33.84202],[-95.83803,33.83609],[-95.8326,33.83549],[-95.82242,33.83963],[-95.81962,33.84591],[-95.82294,33.85508],[-95.82209,33.85704],[-95.81724,33.85993],[-95.80811,33.86128],[-95.80002,33.86136],[-95.79247,33.85856],[-95.78671,33.85508],[-95.77681,33.8453],[-95.77179,33.8439],[-95.75646,33.85317],[-95.75424,33.85622],[-95.75727,33.86616],[-95.76197,33.87224],[-95.76039,33.87824],[-95.76181,33.88478],[-95.75469,33.89378],[-95.73941,33.89637],[-95.72344,33.89297],[-95.71349,33.88454],[-95.69353,33.88656],[-95.68517,33.89074],[-95.67787,33.89972],[-95.6649,33.90775],[-95.64829,33.90622],[-95.6353,33.90858],[-95.62595,33.91729],[-95.60345,33.92763],[-95.59955,33.93558],[-95.59981,33.93999],[-95.59686,33.94226],[-95.58659,33.93475],[-95.56479,33.93245],[-95.5595,33.93056],[-95.5503,33.91268],[-95.54891,33.90744],[-95.54994,33.89841],[-95.54502,33.89501],[-95.53778,33.89313],[-95.5309,33.89428],[-95.52371,33.89934],[-95.52097,33.90545],[-95.51684,33.90496],[-95.51713,33.90106],[-95.52075,33.89429],[-95.52577,33.89417],[-95.53069,33.89073],[-95.54789,33.88915],[-95.54982,33.88516],[-95.54447,33.87996],[-95.52678,33.88516],[-95.51567,33.89224],[-95.51068,33.89368],[-95.50546,33.88951],[-95.50608,33.8767],[-95.50173,33.87494],[-95.48351,33.87792],[-95.46556,33.88773],[-95.4612,33.88843],[-95.45966,33.88749],[-95.45989,33.88549],[-95.46437,33.8745],[-95.46121,33.87167],[-95.41338,33.86662],[-95.37964,33.87019],[-95.34704,33.86783],[-95.33836,33.86949],[-95.33747,33.87377],[-95.33909,33.88527],[-95.33056,33.88641],[-95.31335,33.88152],[-95.30534,33.87517],[-95.2968,33.87101],[-95.29319,33.87265],[-95.27981,33.87385],[-95.27665,33.87657],[-95.27662,33.87917],[-95.28199,33.88771],[-95.27932,33.89702],[-95.2803,33.90702],[-95.27888,33.90925],[-95.27646,33.90905],[-95.27377,33.91404],[-95.27004,33.91459],[-95.26788,33.91351],[-95.26734,33.91116],[-95.26838,33.90705],[-95.27572,33.89661],[-95.27404,33.89234],[-95.26678,33.88793],[-95.25937,33.88917],[-95.25347,33.89419],[-95.24948,33.903],[-95.24826,33.91397],[-95.25313,33.93075],[-95.24904,33.93661],[-95.23482,33.94502],[-95.23198,33.95158],[-95.23153,33.95957],[-95.22543,33.9615],[-95.18227,33.94997],[-95.16604,33.93871],[-95.15752,33.93704],[-95.13536,33.93764],[-95.12436,33.93481],[-95.12172,33.9299],[-95.12232,33.9258],[-95.13182,33.91448],[-95.12899,33.91021],[-95.12248,33.90705],[-95.11699,33.9064],[-95.11059,33.90813],[-95.08958,33.92067],[-95.08224,33.91989],[-95.07958,33.9159],[-95.08038,33.91016],[-95.09729,33.90019],[-95.09895,33.89641],[-95.09235,33.88631],[-95.08694,33.8827],[-95.0849,33.88244],[-95.08116,33.90209],[-95.07906,33.90406],[-95.076,33.91332],[-95.0722,33.91638],[-95.06601,33.91682],[-95.06324,33.91367],[-95.06332,33.91137],[-95.06607,33.90875],[-95.07516,33.90652],[-95.07932,33.90116],[-95.07853,33.89812],[-95.07667,33.8957],[-95.0733,33.89516],[-95.0733,33.90345],[-95.06901,33.90592],[-95.06094,33.90153],[-95.05777,33.88631],[-95.05495,33.88249],[-95.04567,33.87622],[-95.04614,33.86657],[-95.04465,33.86349],[-95.03377,33.86088],[-95.00789,33.86611],[-94.99996,33.86221],[-94.99299,33.85293],[-94.98897,33.85104],[-94.98258,33.85165],[-94.97581,33.86019],[-94.97324,33.86189],[-94.96987,33.86161],[-94.96386,33.83587],[-94.95204,33.83303],[-94.94363,33.82881],[-94.95358,33.81633],[-94.94823,33.80866],[-94.94029,33.80566],[-94.92339,33.80883],[-94.92371,33.81857],[-94.92677,33.82716],[-94.92365,33.82939],[-94.92063,33.82874],[-94.91483,33.82339],[-94.91103,33.81551],[-94.91477,33.80867],[-94.91683,33.80908],[-94.92145,33.79795],[-94.92182,33.79086],[-94.91252,33.77917],[-94.89355,33.77105],[-94.8762,33.7571],[-94.87483,33.75884],[-94.87587,33.76512],[-94.87455,33.76965],[-94.8707,33.77033],[-94.86754,33.76841],[-94.86593,33.76542],[-94.86706,33.76163],[-94.87537,33.75526],[-94.87639,33.75213],[-94.87443,33.74907],[-94.86731,33.74474],[-94.84939,33.73961],[-94.82786,33.74093],[-94.82821,33.73494],[-94.822,33.73282],[-94.82024,33.7341],[-94.82006,33.7369],[-94.82291,33.74746],[-94.83093,33.76001],[-94.82661,33.76774],[-94.82122,33.76903],[-94.81656,33.76437],[-94.8169,33.7542],[-94.8121,33.74969],[-94.81239,33.74611],[-94.81717,33.74139],[-94.81691,33.73975],[-94.81128,33.73492],[-94.8026,33.7328],[-94.79679,33.73698],[-94.77979,33.74453],[-94.77726,33.75424],[-94.7734,33.75939],[-94.76957,33.76104],[-94.76329,33.75981],[-94.75801,33.75615],[-94.75725,33.75156],[-94.75891,33.74859],[-94.76529,33.74594],[-94.77685,33.74642],[-94.78844,33.73636],[-94.78008,33.72968],[-94.77073,33.72745],[-94.76097,33.72754],[-94.7531,33.73422],[-94.75151,33.73399],[-94.74702,33.7248],[-94.75806,33.71748],[-94.76043,33.71278],[-94.7479,33.7146],[-94.74554,33.71674],[-94.74361,33.7253],[-94.74141,33.72688],[-94.73468,33.72619],[-94.73232,33.72212],[-94.73621,33.71594],[-94.74294,33.71292],[-94.75932,33.70954],[-94.75489,33.70493],[-94.74124,33.70071],[-94.73624,33.69187],[-94.71964,33.68875],[-94.716,33.69502],[-94.71707,33.70073],[-94.71949,33.70384],[-94.72816,33.70566],[-94.73235,33.70899],[-94.73483,33.71512],[-94.73054,33.71603],[-94.70637,33.70636],[-94.70111,33.7018],[-94.70214,33.69838],[-94.70513,33.69682],[-94.71428,33.69726],[-94.71836,33.68857],[-94.71631,33.68799],[-94.7029,33.68779],[-94.68502,33.68442],[-94.6711,33.69375],[-94.66702,33.69464],[-94.65919,33.69187],[-94.65154,33.68582],[-94.64866,33.68673],[-94.64712,33.69061],[-94.64844,33.69962],[-94.64675,33.70143],[-94.64336,33.70122],[-94.63952,33.69823],[-94.63902,33.69527],[-94.64554,33.68607],[-94.65054,33.68442],[-94.64541,33.67359],[-94.65228,33.67043],[-94.65936,33.67516],[-94.66223,33.67523],[-94.66834,33.67257],[-94.67107,33.66901],[-94.668,33.66338],[-94.66161,33.66036],[-94.65541,33.66002],[-94.64933,33.66258],[-94.64592,33.66191],[-94.63849,33.66414],[-94.63085,33.67368],[-94.62955,33.67972],[-94.6272,33.68198],[-94.62215,33.68252],[-94.61575,33.67956],[-94.61151,33.66973],[-94.60732,33.66539],[-94.60152,33.66251],[-94.59598,33.66364],[-94.59183,33.6676],[-94.59182,33.67286],[-94.59022,33.6745],[-94.59299,33.68413],[-94.59097,33.68613],[-94.58721,33.6859],[-94.57962,33.67752],[-94.58123,33.67357],[-94.5793,33.67037],[-94.58078,33.6664],[-94.57786,33.66564],[-94.56347,33.66905],[-94.56021,33.66656],[-94.56491,33.66187],[-94.57658,33.65875],[-94.59079,33.64537],[-94.58064,33.64432],[-94.56235,33.65671],[-94.54848,33.66043],[-94.54496,33.65652],[-94.5458,33.65029],[-94.55139,33.64454],[-94.5682,33.63748],[-94.56972,33.62824],[-94.5639,33.62635],[-94.55289,33.62781],[-94.53783,33.63816],[-94.528,33.64124],[-94.52285,33.641],[-94.5185,33.63748],[-94.53552,33.6241],[-94.53488,33.62128],[-94.5278,33.61594],[-94.52339,33.61593],[-94.51954,33.61815],[-94.51766,33.62365],[-94.52021,33.62972],[-94.51751,33.63314],[-94.51108,33.62267],[-94.50454,33.62065],[-94.49926,33.62409],[-94.4983,33.6277],[-94.49234,33.62489],[-94.48805,33.62777],[-94.48789,33.63107],[-94.49162,33.63637],[-94.47773,33.63894],[-94.46603,33.63617],[-94.45921,33.64501],[-94.44869,33.64273],[-94.44679,33.6401],[-94.44841,33.63455],[-94.46273,33.63086],[-94.46117,33.62934],[-94.46077,33.62482],[-94.45267,33.62246],[-94.45312,33.61704],[-94.4706,33.60652],[-94.47212,33.60392],[-94.47132,33.60202],[-94.46809,33.59943],[-94.46317,33.59846],[-94.45757,33.60045],[-94.45825,33.59824],[-94.45575,33.59446],[-94.45053,33.59107],[-94.44166,33.59148],[-94.43948,33.59421],[-94.43031,33.59136],[-94.41315,33.56953],[-94.41005,33.56828],[-94.40376,33.5683],[-94.39891,33.57061],[-94.3827,33.58327],[-94.37848,33.57863],[-94.37905,33.56998],[-94.38671,33.56565],[-94.39535,33.56652],[-94.4014,33.56106],[-94.40056,33.55653],[-94.38685,33.54508],[-94.38128,33.54397],[-94.37016,33.54573],[-94.35874,33.54313],[-94.35363,33.54372],[-94.34735,33.5517],[-94.35273,33.56148],[-94.34388,33.56788],[-94.3395,33.56768],[-94.33533,33.56442],[-94.33355,33.55604],[-94.33078,33.55266],[-94.32035,33.54889],[-94.30941,33.55161],[-94.30641,33.55552],[-94.3069,33.56026],[-94.30151,33.57229],[-94.29368,33.58014],[-94.28791,33.58244],[-94.28289,33.58142],[-94.28067,33.57551],[-94.29031,33.56773],[-94.29099,33.55931],[-94.28796,33.55725],[-94.27775,33.55721],[-94.27143,33.5622],[-94.26578,33.57336],[-94.25789,33.58231],[-94.24907,33.58788],[-94.24228,33.58978],[-94.23658,33.58691],[-94.23684,33.58043],[-94.238,33.57739],[-94.24407,33.57385],[-94.2509,33.56543],[-94.25224,33.56067],[-94.24996,33.55663],[-94.23706,33.55235],[-94.22825,33.55236],[-94.22085,33.55494],[-94.21342,33.56305],[-94.20625,33.56707],[-94.20337,33.56613],[-94.20039,33.55668],[-94.19554,33.55513],[-94.19183,33.55697],[-94.1898,33.56181],[-94.19443,33.5737],[-94.2016,33.57751],[-94.2111,33.5736],[-94.21624,33.57647],[-94.2172,33.58027],[-94.21302,33.58342],[-94.20454,33.57984],[-94.19714,33.58099],[-94.18372,33.59464],[-94.17986,33.59199],[-94.16196,33.58875],[-94.16173,33.57993],[-94.15715,33.57587],[-94.15201,33.5764],[-94.14647,33.58171],[-94.14197,33.58102],[-94.14302,33.57751],[-94.15113,33.57197],[-94.15155,33.56862],[-94.14914,33.56605],[-94.14534,33.56511],[-94.13686,33.57113],[-94.13501,33.57092],[-94.13196,33.55393],[-94.12874,33.5509],[-94.12629,33.55072],[-94.12265,33.55329],[-94.12065,33.56697],[-94.11193,33.56703],[-94.09088,33.57521],[-94.08185,33.57535],[-94.0726,33.57214],[-94.07171,33.57664],[-94.0751,33.58278],[-94.07368,33.58481],[-94.07042,33.58234],[-94.07046,33.57715],[-94.06793,33.57029],[-94.06682,33.56895],[-94.0564,33.56759],[-94.05561,33.56188],[-94.06036,33.55912],[-94.06702,33.56093],[-94.07223,33.55968],[-94.0739,33.5577],[-94.0734,33.55482],[-94.06159,33.54948],[-94.0518,33.55278],[-94.05015,33.55114],[-94.04332,33.55157],[-94.04272,32.00014],[-94.04105,31.99646],[-94.04236,31.99376],[-94.03853,31.99237],[-94.03356,31.99539],[-94.03122,31.99467],[-94.02834,31.99622],[-94.02276,31.9903],[-94.01795,31.99249],[-94.01889,31.98973],[-94.01652,31.98071],[-94.00676,31.97349],[-93.99527,31.95365],[-93.98221,31.93954],[-93.97757,31.92659],[-93.97175,31.92048],[-93.96894,31.92013],[-93.96296,31.92408],[-93.96014,31.92342],[-93.95361,31.91057],[-93.93767,31.90924],[-93.92841,31.91265],[-93.92149,31.90438],[-93.92518,31.90234],[-93.93209,31.89366],[-93.93118,31.89155],[-93.92547,31.89465],[-93.92442,31.89309],[-93.92706,31.89113],[-93.92608,31.88853],[-93.92044,31.88594],[-93.91984,31.89086],[-93.9168,31.88984],[-93.91612,31.89268],[-93.91457,31.89285],[-93.9123,31.89235],[-93.91267,31.89007],[-93.90677,31.89254],[-93.90616,31.88984],[-93.90303,31.8937],[-93.90369,31.89584],[-93.90067,31.89694],[-93.89811,31.8935],[-93.89639,31.88615],[-93.90197,31.87956],[-93.90157,31.87473],[-93.89215,31.87589],[-93.89295,31.87167],[-93.88873,31.86973],[-93.88598,31.86574],[-93.88444,31.86627],[-93.88462,31.86965],[-93.88132,31.86821],[-93.88178,31.86492],[-93.88924,31.8559],[-93.88248,31.85449],[-93.88431,31.84859],[-93.87863,31.8449],[-93.88216,31.84337],[-93.88049,31.84175],[-93.87605,31.84179],[-93.87302,31.83654],[-93.877,31.83265],[-93.8746,31.82968],[-93.87484,31.82137],[-93.87115,31.81956],[-93.87302,31.81472],[-93.87096,31.81397],[-93.86751,31.81549],[-93.86109,31.81214],[-93.85946,31.80924],[-93.85342,31.80546],[-93.85345,31.80246],[-93.85156,31.80034],[-93.84712,31.79983],[-93.84601,31.80203],[-93.83942,31.80037],[-93.83582,31.79525],[-93.83782,31.7878],[-93.83571,31.7852],[-93.83778,31.78371],[-93.83758,31.78086],[-93.8322,31.7813],[-93.83067,31.77945],[-93.83291,31.7775],[-93.82676,31.77773],[-93.82283,31.77446],[-93.82526,31.76731],[-93.82958,31.76418],[-93.82693,31.76386],[-93.82632,31.75954],[-93.82801,31.76098],[-93.83004,31.76035],[-93.8312,31.75491],[-93.83522,31.75298],[-93.83637,31.74845],[-93.83161,31.74539],[-93.8231,31.7333],[-93.81515,31.72945],[-93.81234,31.71492],[-93.81672,31.70792],[-93.81137,31.70717],[-93.8102,31.70309],[-93.79728,31.70559],[-93.79431,31.70258],[-93.79957,31.69254],[-93.80512,31.68691],[-93.8042,31.68436],[-93.81058,31.6801],[-93.81226,31.67703],[-93.81606,31.67571],[-93.81239,31.67173],[-93.81253,31.66996],[-93.81689,31.66816],[-93.8172,31.67203],[-93.8222,31.67392],[-93.82637,31.66696],[-93.82596,31.66187],[-93.81959,31.65281],[-93.8126,31.65047],[-93.81119,31.64792],[-93.81309,31.64655],[-93.81682,31.64894],[-93.81811,31.64728],[-93.8159,31.63985],[-93.81809,31.63637],[-93.81582,31.63247],[-93.82004,31.6304],[-93.82081,31.62847],[-93.81692,31.62527],[-93.81612,31.62238],[-93.82683,31.62064],[-93.82017,31.61796],[-93.81892,31.61498],[-93.82788,31.61691],[-93.83287,31.60976],[-93.83872,31.60552],[-93.83733,31.60151],[-93.83887,31.5997],[-93.83517,31.59152],[-93.83487,31.58633],[-93.83047,31.58029],[-93.8182,31.57104],[-93.8182,31.56951],[-93.82152,31.56908],[-93.82244,31.56751],[-93.82076,31.56364],[-93.81635,31.56347],[-93.81779,31.56048],[-93.82101,31.55984],[-93.81806,31.55441],[-93.80989,31.54984],[-93.80764,31.54629],[-93.79931,31.54337],[-93.80262,31.53914],[-93.79886,31.53815],[-93.798,31.53446],[-93.79054,31.53098],[-93.78705,31.52718],[-93.76011,31.52396],[-93.7537,31.52481],[-93.74739,31.53056],[-93.74692,31.52789],[-93.74262,31.5264],[-93.74059,31.51813],[-93.74451,31.5172],[-93.74245,31.51544],[-93.73343,31.51327],[-93.71465,31.51406],[-93.7111,31.51218],[-93.71375,31.50865],[-93.71945,31.50704],[-93.71741,31.50147],[-93.72341,31.50102],[-93.72251,31.49267],[-93.73045,31.48737],[-93.73532,31.48901],[-93.73728,31.48435],[-93.74218,31.48361],[-93.74539,31.48556],[-93.75242,31.48259],[-93.75096,31.47921],[-93.74696,31.4818],[-93.74526,31.47987],[-93.74999,31.46972],[-93.7404,31.46499],[-93.73085,31.45717],[-93.72282,31.45358],[-93.71687,31.45733],[-93.71035,31.45264],[-93.70877,31.45355],[-93.70838,31.45686],[-93.70364,31.45522],[-93.70953,31.44174],[-93.69177,31.4389],[-93.70464,31.41856],[-93.7048,31.41097],[-93.69478,31.40911],[-93.69016,31.40671],[-93.68159,31.39814],[-93.67429,31.39783],[-93.67007,31.38763],[-93.66908,31.37103],[-93.67386,31.37036],[-93.67108,31.36626],[-93.66677,31.36539],[-93.65737,31.36685],[-93.64747,31.37097],[-93.63907,31.37203],[-93.64458,31.36452],[-93.64534,31.35925],[-93.66867,31.35258],[-93.66884,31.33907],[-93.67742,31.33046],[-93.67368,31.32568],[-93.6739,31.32378],[-93.67597,31.32148],[-93.68304,31.31877],[-93.684,31.31459],[-93.68799,31.30947],[-93.68758,31.30634],[-93.6837,31.30149],[-93.67556,31.30105],[-93.66895,31.29811],[-93.65912,31.28192],[-93.6486,31.28412],[-93.64445,31.27771],[-93.64242,31.26963],[-93.62051,31.27112],[-93.61982,31.26472],[-93.61402,31.25965],[-93.61586,31.25491],[-93.61422,31.25198],[-93.62165,31.24926],[-93.61628,31.24458],[-93.61612,31.23677],[-93.61812,31.23278],[-93.61084,31.23228],[-93.60773,31.22777],[-93.59794,31.23118],[-93.5963,31.22992],[-93.59925,31.2249],[-93.59541,31.22203],[-93.59518,31.22024],[-93.60332,31.21693],[-93.60348,31.21032],[-93.60705,31.20451],[-93.60176,31.19957],[-93.60236,31.18232],[-93.60042,31.17673],[-93.58882,31.16583],[-93.57756,31.16816],[-93.57023,31.17714],[-93.55261,31.18559],[-93.5551,31.18791],[-93.55244,31.18956],[-93.54358,31.18334],[-93.53497,31.18567],[-93.5331,31.1843],[-93.53147,31.17961],[-93.53262,31.17483],[-93.54311,31.17088],[-93.53629,31.15912],[-93.54014,31.15644],[-93.5475,31.15687],[-93.54855,31.15556],[-93.54872,31.1494],[-93.54456,31.1361],[-93.53756,31.12637],[-93.53912,31.11509],[-93.54562,31.11128],[-93.54894,31.10548],[-93.54884,31.1004],[-93.55729,31.09976],[-93.5576,31.09758],[-93.55402,31.09362],[-93.55661,31.0935],[-93.5607,31.09791],[-93.56294,31.09734],[-93.56364,31.09458],[-93.55792,31.09103],[-93.55554,31.08692],[-93.54963,31.09086],[-93.54888,31.08903],[-93.55239,31.08058],[-93.55142,31.07849],[-93.54027,31.07815],[-93.53335,31.07508],[-93.52788,31.07486],[-93.5286,31.07119],[-93.53383,31.07309],[-93.53687,31.07095],[-93.53092,31.07039],[-93.52492,31.06689],[-93.52077,31.0663],[-93.51894,31.06241],[-93.52092,31.05712],[-93.53011,31.0568],[-93.53207,31.05562],[-93.53171,31.05389],[-93.52652,31.04748],[-93.51945,31.04485],[-93.51973,31.04253],[-93.52449,31.04094],[-93.52267,31.03732],[-93.51029,31.03369],[-93.50781,31.03136],[-93.50859,31.02926],[-93.52194,31.02013],[-93.53035,31.02033],[-93.53308,31.01906],[-93.53963,31.00836],[-93.54896,31.0102],[-93.55575,31.00386],[-93.56204,31.00809],[-93.56599,31.01298],[-93.57236,31.00863],[-93.56766,31.00476],[-93.56887,31.00097],[-93.57108,31.00047],[-93.57326,31.00558],[-93.57797,31.00181],[-93.57829,30.99976],[-93.57407,30.99243],[-93.56541,30.99058],[-93.56425,30.9891],[-93.56838,30.977],[-93.57456,30.97391],[-93.57401,30.97165],[-93.56768,30.96887],[-93.56008,30.9711],[-93.55425,30.96764],[-93.54967,30.9673],[-93.54737,30.96422],[-93.5468,30.95853],[-93.54488,30.95723],[-93.54006,30.95623],[-93.53163,30.95808],[-93.53079,30.95523],[-93.53238,30.94899],[-93.5294,30.94194],[-93.52576,30.93909],[-93.5279,30.93417],[-93.52593,30.92997],[-93.52968,30.92791],[-93.53125,30.92417],[-93.53728,30.9232],[-93.54259,30.91994],[-93.54237,30.92582],[-93.54578,30.9271],[-93.54812,30.92578],[-93.55366,30.91673],[-93.5578,30.91439],[-93.55954,30.9155],[-93.55818,30.91097],[-93.55308,30.90857],[-93.55337,30.90167],[-93.54891,30.90078],[-93.54892,30.89828],[-93.55221,30.89629],[-93.55725,30.89677],[-93.56737,30.89438],[-93.57397,30.88579],[-93.57072,30.8752],[-93.56321,30.87507],[-93.56446,30.86848],[-93.55971,30.87042],[-93.55823,30.86928],[-93.56195,30.85929],[-93.55747,30.8522],[-93.5688,30.844],[-93.56255,30.84178],[-93.56072,30.8467],[-93.55927,30.84675],[-93.5592,30.84102],[-93.55399,30.83651],[-93.55287,30.83356],[-93.55718,30.8286],[-93.5536,30.82427],[-93.56325,30.81871],[-93.56416,30.8151],[-93.56686,30.81446],[-93.56069,30.81043],[-93.56242,30.80631],[-93.57443,30.80152],[-93.58131,30.80311],[-93.58347,30.80176],[-93.58374,30.79558],[-93.58091,30.79102],[-93.58234,30.78855],[-93.58856,30.78765],[-93.58892,30.7859],[-93.58262,30.77878],[-93.58466,30.77724],[-93.59001,30.77741],[-93.59255,30.77485],[-93.59171,30.76439],[-93.60432,30.75937],[-93.60478,30.76432],[-93.60589,30.76448],[-93.60581,30.76107],[-93.60939,30.75737],[-93.61209,30.76079],[-93.61415,30.76015],[-93.61428,30.7558],[-93.60785,30.74721],[-93.60922,30.74514],[-93.61715,30.74377],[-93.61927,30.74115],[-93.61784,30.73849],[-93.61181,30.73567],[-93.60896,30.7295],[-93.61159,30.72839],[-93.61638,30.73],[-93.61754,30.72878],[-93.61558,30.72359],[-93.61716,30.7194],[-93.61595,30.71368],[-93.61979,30.70873],[-93.62062,30.7038],[-93.62484,30.70044],[-93.62044,30.69532],[-93.62676,30.68875],[-93.62714,30.6839],[-93.63042,30.67858],[-93.63587,30.6764],[-93.63812,30.6728],[-93.64413,30.67355],[-93.64427,30.66898],[-93.64782,30.66822],[-93.65437,30.67048],[-93.65958,30.66194],[-93.6665,30.66143],[-93.67055,30.65737],[-93.67297,30.65832],[-93.66992,30.65276],[-93.67345,30.65181],[-93.67381,30.64829],[-93.68302,30.64074],[-93.68239,30.63884],[-93.67657,30.63586],[-93.6781,30.63548],[-93.67914,30.63711],[-93.68289,30.6353],[-93.68451,30.62866],[-93.68824,30.63115],[-93.68997,30.63043],[-93.68862,30.62773],[-93.68476,30.62741],[-93.68533,30.62574],[-93.6815,30.62064],[-93.68176,30.61879],[-93.68955,30.61158],[-93.68333,30.60859],[-93.68294,30.60497],[-93.67838,30.59829],[-93.67857,30.59348],[-93.68371,30.59349],[-93.68456,30.5865],[-93.68652,30.58553],[-93.69247,30.58566],[-93.68781,30.59038],[-93.69252,30.59424],[-93.70083,30.59154],[-93.69656,30.58684],[-93.69838,30.58495],[-93.7008,30.58529],[-93.70273,30.58888],[-93.70431,30.58807],[-93.70468,30.58524],[-93.70734,30.58861],[-93.71264,30.58846],[-93.71325,30.58236],[-93.7101,30.58064],[-93.71099,30.57854],[-93.71682,30.57778],[-93.72128,30.5805],[-93.72818,30.57365],[-93.7259,30.56951],[-93.72799,30.56618],[-93.7235,30.55993],[-93.72503,30.55691],[-93.73114,30.55298],[-93.73132,30.55044],[-93.72847,30.54555],[-93.74004,30.5397],[-93.73837,30.5373],[-93.73247,30.53682],[-93.73325,30.53057],[-93.72831,30.52596],[-93.72036,30.52457],[-93.71725,30.51952],[-93.71343,30.51826],[-93.70928,30.52186],[-93.70772,30.52114],[-93.71081,30.518],[-93.71017,30.51378],[-93.71189,30.51111],[-93.70775,30.5109],[-93.70608,30.50715],[-93.71019,30.50608],[-93.71479,30.50176],[-93.71326,30.50019],[-93.70973,30.50141],[-93.70854,30.49916],[-93.71081,30.49752],[-93.71443,30.49793],[-93.71651,30.4942],[-93.70932,30.4835],[-93.71123,30.4824],[-93.71548,30.48519],[-93.71702,30.48305],[-93.71031,30.47577],[-93.71188,30.46938],[-93.70756,30.46768],[-93.69902,30.4591],[-93.70037,30.45775],[-93.70691,30.4573],[-93.70253,30.45036],[-93.70735,30.4452],[-93.70557,30.4434],[-93.69896,30.44528],[-93.69776,30.43985],[-93.70414,30.43429],[-93.70199,30.43026],[-93.70797,30.43014],[-93.712,30.43366],[-93.7165,30.4286],[-93.71639,30.42422],[-93.7178,30.4229],[-93.71908,30.42307],[-93.7223,30.43219],[-93.72566,30.43116],[-93.72675,30.42422],[-93.72205,30.4207],[-93.72683,30.41933],[-93.72964,30.4133],[-93.73346,30.41521],[-93.73504,30.41237],[-93.73482,30.40772],[-93.73806,30.40408],[-93.74127,30.40384],[-93.74183,30.40061],[-93.73641,30.39931],[-93.74306,30.395],[-93.73922,30.3951],[-93.73852,30.39348],[-93.74519,30.39326],[-93.74418,30.38965],[-93.74623,30.38823],[-93.74842,30.3901],[-93.74878,30.39284],[-93.74578,30.3953],[-93.74828,30.39702],[-93.75171,30.396],[-93.75352,30.39178],[-93.75762,30.3906],[-93.75811,30.38594],[-93.75432,30.38591],[-93.75517,30.38406],[-93.7588,30.38419],[-93.75519,30.37912],[-93.7546,30.36683],[-93.75626,30.36599],[-93.75789,30.36995],[-93.75921,30.3687],[-93.75761,30.36494],[-93.75096,30.35985],[-93.7553,30.35973],[-93.7571,30.35611],[-93.75939,30.36058],[-93.76096,30.35979],[-93.75816,30.35461],[-93.76263,30.35334],[-93.75761,30.35021],[-93.76352,30.34636],[-93.75949,30.34223],[-93.76578,30.34347],[-93.76328,30.33947],[-93.75865,30.33895],[-93.76587,30.33266],[-93.76303,30.32945],[-93.7591,30.33024],[-93.75734,30.33249],[-93.7554,30.33145],[-93.75522,30.3284],[-93.75162,30.32922],[-93.75225,30.32758],[-93.75589,30.32681],[-93.75436,30.32387],[-93.75777,30.32216],[-93.75639,30.32033],[-93.75321,30.32245],[-93.75058,30.322],[-93.75106,30.32002],[-93.74745,30.31875],[-93.75016,30.31685],[-93.74672,30.31544],[-93.74859,30.31203],[-93.74114,30.31672],[-93.73925,30.31589],[-93.74336,30.31165],[-93.74262,30.3097],[-93.73753,30.30763],[-93.74443,30.30522],[-93.74278,30.30126],[-93.73878,30.30384],[-93.73449,30.30164],[-93.73767,30.29933],[-93.73265,30.29912],[-93.72905,30.29654],[-93.72543,30.29839],[-93.72427,30.29506],[-93.71892,30.29615],[-93.71568,30.2928],[-93.71457,30.29341],[-93.71527,30.29568],[-93.71199,30.29228],[-93.71343,30.28957],[-93.71271,30.28767],[-93.71003,30.28839],[-93.70923,30.29238],[-93.70655,30.29218],[-93.70451,30.2893],[-93.70564,30.28546],[-93.70898,30.28362],[-93.70845,30.28089],[-93.7047,30.28072],[-93.70451,30.28404],[-93.70082,30.28464],[-93.70701,30.27306],[-93.71045,30.27328],[-93.70764,30.27168],[-93.70877,30.26756],[-93.70546,30.26798],[-93.70874,30.26556],[-93.70607,30.26567],[-93.70807,30.26404],[-93.70734,30.26124],[-93.70277,30.26097],[-93.70477,30.25785],[-93.70284,30.2566],[-93.70001,30.25815],[-93.70398,30.25458],[-93.70516,30.25673],[-93.7058,30.25357],[-93.70845,30.25166],[-93.70735,30.24903],[-93.70938,30.24862],[-93.7069,30.24766],[-93.70631,30.24566],[-93.71049,30.2456],[-93.70487,30.24219],[-93.70293,30.23865],[-93.70937,30.23832],[-93.70462,30.23362],[-93.70933,30.23334],[-93.71096,30.23523],[-93.71326,30.22913],[-93.70958,30.22764],[-93.71348,30.22467],[-93.71104,30.22217],[-93.71293,30.21856],[-93.716,30.22067],[-93.71874,30.21922],[-93.71873,30.21646],[-93.71637,30.21677],[-93.71979,30.21473],[-93.71683,30.21171],[-93.72099,30.20934],[-93.71722,30.2063],[-93.7141,30.20855],[-93.71438,30.20234],[-93.71764,30.20025],[-93.71458,30.19746],[-93.71751,30.19399],[-93.71304,30.19298],[-93.71249,30.18719],[-93.7089,30.18619],[-93.71034,30.18072],[-93.71222,30.18032],[-93.70882,30.17912],[-93.70566,30.18025],[-93.70667,30.17716],[-93.70439,30.1741],[-93.69999,30.17524],[-93.70288,30.17116],[-93.70068,30.16633],[-93.70242,30.16162],[-93.70644,30.15771],[-93.70599,30.15051],[-93.70937,30.14676],[-93.69818,30.15322],[-93.69623,30.15171],[-93.69345,30.14233],[-93.68808,30.14141],[-93.69295,30.13535],[-93.69496,30.13544],[-93.69796,30.13866],[-93.70113,30.13782],[-93.7006,30.12364],[-93.70772,30.12076],[-93.70281,30.11641],[-93.70235,30.11275],[-93.70438,30.11075],[-93.71186,30.10903],[-93.71501,30.10103],[-93.72333,30.09476],[-93.72348,30.08351],[-93.72668,30.08316],[-93.73085,30.08965],[-93.73379,30.08695],[-93.73248,30.08308],[-93.71695,30.07067],[-93.70169,30.06629],[-93.69944,30.06301],[-93.69939,30.05961],[-93.70264,30.05603],[-93.7091,30.05501],[-93.71115,30.05668],[-93.71289,30.06432],[-93.7157,30.06664],[-93.7183,30.06613],[-93.72118,30.05313],[-93.73698,30.03831],[-93.74025,30.02363],[-93.75606,30.01575],[-93.76633,30.00501],[-93.77035,29.99673],[-93.78282,29.99315],[-93.79104,29.98738],[-93.79859,29.97724],[-93.80288,29.97541],[-93.80584,29.96799],[-93.81057,29.94013],[-93.81313,29.93697],[-93.81809,29.9178],[-93.82144,29.91016],[-93.83449,29.89249],[-93.83939,29.88262],[-93.8431,29.87797],[-93.85275,29.87387],[-93.8941,29.84794],[-93.91836,29.82718],[-93.92231,29.82254],[-93.92668,29.81204],[-93.92762,29.79375],[-93.92515,29.78791],[-93.89925,29.77213],[-93.89209,29.76545],[-93.89079,29.761],[-93.89278,29.75536],[-93.89111,29.74552],[-93.88583,29.74197],[-93.86517,29.73479],[-93.85652,29.72136],[-93.85631,29.7148],[-93.84906,29.7051],[-93.84673,29.69946],[-93.83665,29.68781],[-93.83563,29.68376],[-93.83857,29.68214],[-93.83044,29.65168],[-93.83917,29.68181],[-93.84526,29.67775],[-93.86637,29.67357],[-93.94747,29.68147],[-93.98014,29.68321],[-93.99897,29.68197],[-94.01337,29.67831],[-94.05103,29.67276],[-94.11259,29.65386],[-94.31919,29.57355],[-94.49994,29.50683],[-94.58954,29.47046],[-94.64653,29.44383],[-94.67159,29.43024],[-94.69486,29.41529],[-94.71544,29.3958],[-94.72813,29.37531],[-94.72902,29.36002],[-94.69428,29.34841],[-94.67803,29.34615],[-94.69385,29.34765],[-94.72906,29.35937],[-94.73039,29.33692],[-94.72277,29.33196],[-94.69005,29.3274],[-94.73066,29.33228],[-94.7714,29.30347],[-94.78927,29.28852],[-94.81356,29.27302],[-94.86394,29.24387],[-94.87603,29.23804],[-94.87526,29.24003],[-94.87791,29.2391],[-94.87648,29.23801],[-94.87937,29.23586],[-94.88103,29.23786],[-94.87998,29.23561],[-94.88198,29.23423],[-95.044,29.13691],[-95.11206,29.08939],[-95.11669,29.08688],[-95.13098,29.08444],[-95.13336,29.08176],[-95.12651,29.07818],[-95.12304,29.07328],[-95.12522,29.06743],[-95.13072,29.06548],[-95.1981,29.01856],[-95.26354,28.97016],[-95.29475,28.93752],[-95.28895,28.93157],[-95.29515,28.93699],[-95.29765,28.93464],[-95.29074,28.92756],[-95.29827,28.93434],[-95.3109,28.92754],[-95.36882,28.88466],[-95.38066,28.87461],[-95.38518,28.86606],[-95.40393,28.86084],[-95.44219,28.85796],[-95.45594,28.85186],[-95.62524,28.76172],[-95.64424,28.75017],[-95.68874,28.72885],[-95.76518,28.68724],[-95.82266,28.65943],[-95.89619,28.62844],[-95.97306,28.59835],[-95.978,28.59681],[-95.98094,28.59759],[-95.98178,28.59978],[-95.9842,28.59436],[-95.98709,28.5928],[-96.00802,28.58566],[-96.06425,28.56235],[-96.12841,28.53388],[-96.19374,28.50265],[-96.22194,28.49184],[-96.23057,28.48355],[-96.30085,28.44329],[-96.32135,28.42535],[-96.33731,28.42002],[-96.369,28.39875],[-96.36725,28.38337],[-96.38334,28.38078],[-96.39818,28.34319],[-96.41426,28.32712],[-96.44541,28.31618],[-96.45981,28.30873],[-96.5204,28.28337],[-96.56596,28.26126],[-96.62188,28.2293],[-96.65792,28.20646],[-96.747,28.14484],[-96.81158,28.09565],[-96.8435,28.06878],[-96.85504,28.06224],[-96.85597,28.05797],[-96.91432,28.00513],[-96.95858,27.95967],[-97.01251,27.89823],[-97.0378,27.85979],[-97.04553,27.83938],[-97.03508,27.83462],[-97.0451,27.83881],[-97.04535,27.83521],[-97.03499,27.82948],[-97.04573,27.83417],[-97.06131,27.81941],[-97.08808,27.78942],[-97.11977,27.74722],[-97.15016,27.70249],[-97.16406,27.68057],[-97.16482,27.67577],[-97.16809,27.67413],[-97.19499,27.62878],[-97.2676,27.48897],[-97.28541,27.45175],[-97.3086,27.39702],[-97.33872,27.3088],[-97.35314,27.2569],[-97.36536,27.20266],[-97.37498,27.12532],[-97.37931,27.05148],[-97.37872,26.99996],[-97.37578,26.95651],[-97.36531,26.87484],[-97.34415,26.7784],[-97.32347,26.70511],[-97.29969,26.63166],[-97.27387,26.56255],[-97.27056,26.56318],[-97.269,26.56178],[-97.26844,26.55016],[-97.23032,26.43448],[-97.19478,26.30691],[-97.18255,26.25037],[-97.17401,26.1957],[-97.16152,26.08928],[-97.15533,26.0683],[-97.14514,26.06769],[-97.15474,26.0676],[-97.15184,26.06419],[-97.14495,26.06441],[-97.15165,26.06395],[-97.1533,26.05487],[-97.15152,26.01235],[-97.14533,25.97408],[-97.14545,25.97121],[-97.14683,25.97059],[-97.14595,25.95549],[-97.14814,25.95278],[-97.15636,25.94916],[-97.16042,25.95083],[-97.15852,25.95787],[-97.159,25.96287],[-97.16759,25.96055],[-97.17622,25.96562],[-97.17868,25.96456],[-97.17889,25.96107],[-97.18776,25.95804],[-97.18891,25.95384],[-97.1969,25.9578],[-97.20554,25.95849],[-97.2088,25.96398],[-97.21998,25.95777],[-97.22853,25.95892],[-97.23994,25.95505],[-97.24787,25.94805],[-97.26212,25.95123],[-97.27632,25.95221],[-97.28373,25.95926],[-97.28954,25.95422],[-97.2846,25.94956],[-97.27722,25.94611],[-97.28092,25.94398],[-97.27701,25.93853],[-97.27712,25.93526],[-97.28884,25.93636],[-97.29698,25.93369],[-97.30004,25.93699],[-97.30269,25.93694],[-97.30443,25.93492],[-97.30453,25.92888],[-97.30706,25.92684],[-97.31047,25.92677],[-97.31511,25.93166],[-97.31981,25.93024],[-97.32437,25.92505],[-97.32488,25.91843],[-97.32638,25.91755],[-97.33087,25.9184],[-97.33322,25.92601],[-97.33494,25.92079],[-97.33771,25.92071],[-97.33686,25.9295],[-97.34304,25.92906],[-97.3484,25.93111],[-97.35084,25.92414],[-97.35438,25.92011],[-97.36205,25.91572],[-97.36837,25.91516],[-97.36864,25.90965],[-97.37469,25.90701],[-97.36613,25.90232],[-97.36616,25.8909],[-97.35688,25.88807],[-97.35859,25.88637],[-97.36739,25.8848],[-97.37377,25.87995],[-97.37222,25.87822],[-97.36278,25.87798],[-97.35914,25.87944],[-97.35895,25.87225],[-97.35676,25.86765],[-97.35911,25.86619],[-97.3616,25.86909],[-97.36916,25.85869],[-97.37607,25.85595],[-97.37506,25.85403],[-97.36636,25.85347],[-97.36398,25.8508],[-97.37105,25.8492],[-97.37331,25.83974],[-97.38199,25.83983],[-97.38723,25.84375],[-97.38959,25.83942],[-97.39368,25.83734],[-97.39989,25.83902],[-97.40591,25.83804],[-97.4061,25.84012],[-97.40021,25.84233],[-97.39894,25.85058],[-97.40248,25.85189],[-97.40594,25.84557],[-97.40883,25.84639],[-97.41025,25.85046],[-97.40803,25.85522],[-97.40826,25.86094],[-97.40977,25.86214],[-97.41373,25.85765],[-97.41446,25.84683],[-97.41257,25.84192],[-97.4138,25.84089],[-97.42499,25.84061],[-97.43608,25.84961],[-97.44329,25.84854],[-97.44577,25.85144],[-97.44481,25.85589],[-97.45368,25.85399],[-97.45164,25.85891],[-97.44818,25.85951],[-97.44466,25.86771],[-97.44879,25.87205],[-97.4531,25.868],[-97.45654,25.86836],[-97.45452,25.87987],[-97.45544,25.88388],[-97.46406,25.88186],[-97.47042,25.87566],[-97.47316,25.87629],[-97.47431,25.87853],[-97.46794,25.88451],[-97.46772,25.88748],[-97.46919,25.88881],[-97.48349,25.87912],[-97.48751,25.87911],[-97.48632,25.88352],[-97.48834,25.88543],[-97.49295,25.88056],[-97.49613,25.87948],[-97.49763,25.88232],[-97.49637,25.89447],[-97.49777,25.89889],[-97.51039,25.88779],[-97.52107,25.88588],[-97.5235,25.88955],[-97.52411,25.89927],[-97.52897,25.90713],[-97.53332,25.90835],[-97.53376,25.91174],[-97.53024,25.91642],[-97.53017,25.9199],[-97.54283,25.91997],[-97.54252,25.92223],[-97.53729,25.92725],[-97.53729,25.93057],[-97.54339,25.92334],[-97.54547,25.92511],[-97.546,25.93348],[-97.55218,25.93693],[-97.5573,25.93577],[-97.5594,25.92705],[-97.56109,25.92584],[-97.56783,25.92762],[-97.56632,25.93192],[-97.56761,25.93383],[-97.57465,25.93499],[-97.58339,25.93356],[-97.58372,25.93648],[-97.58197,25.93865],[-97.56647,25.94513],[-97.56804,25.95241],[-97.57467,25.95348],[-97.57355,25.94518],[-97.57865,25.94227],[-97.58303,25.9551],[-97.58227,25.96234],[-97.59322,25.96162],[-97.59891,25.95707],[-97.60239,25.95767],[-97.61052,25.96589],[-97.60802,25.97124],[-97.60845,25.97691],[-97.6174,25.97987],[-97.62096,25.98863],[-97.6311,25.98816],[-97.63452,25.99034],[-97.63307,25.99462],[-97.63063,25.99628],[-97.62602,25.99498],[-97.62282,25.99171],[-97.62075,25.9921],[-97.61853,25.99575],[-97.61825,26.0021],[-97.62006,26.00237],[-97.62353,25.99734],[-97.62767,25.99671],[-97.62688,26.00578],[-97.62958,26.0056],[-97.6333,26.00064],[-97.63549,26.00014],[-97.64891,26.01039],[-97.64828,26.01237],[-97.64016,26.01195],[-97.63737,26.01404],[-97.63704,26.01951],[-97.64025,26.02447],[-97.64509,26.02774],[-97.64746,26.02628],[-97.65064,26.02245],[-97.65037,26.01733],[-97.65195,26.01597],[-97.65833,26.01997],[-97.66797,26.01943],[-97.66695,26.02474],[-97.66082,26.03064],[-97.66054,26.03368],[-97.66259,26.03778],[-97.66601,26.02981],[-97.66903,26.02978],[-97.67103,26.03385],[-97.67469,26.03272],[-97.67596,26.03003],[-97.67402,26.02745],[-97.67553,26.02597],[-97.68541,26.0268],[-97.69336,26.03196],[-97.69306,26.02602],[-97.69024,26.02188],[-97.69247,26.01919],[-97.69745,26.02464],[-97.69726,26.03104],[-97.70244,26.03185],[-97.70672,26.03751],[-97.70912,26.03513],[-97.71004,26.02612],[-97.72037,26.02349],[-97.72099,26.0248],[-97.71853,26.02886],[-97.71947,26.03084],[-97.73453,26.03172],[-97.7367,26.03072],[-97.73617,26.02909],[-97.73282,26.02724],[-97.72733,26.02784],[-97.72529,26.02468],[-97.72636,26.02287],[-97.73181,26.02344],[-97.73689,26.02158],[-97.7379,26.02327],[-97.73592,26.02738],[-97.73735,26.02892],[-97.74389,26.0294],[-97.74838,26.02674],[-97.74943,26.03038],[-97.75214,26.03155],[-97.75969,26.02618],[-97.76266,26.0264],[-97.76409,26.02857],[-97.76276,26.04188],[-97.76887,26.04751],[-97.77682,26.04419],[-97.7759,26.04002],[-97.76942,26.03591],[-97.77428,26.03359],[-97.77752,26.02942],[-97.78266,26.03404],[-97.78928,26.03331],[-97.79339,26.03487],[-97.7974,26.0399],[-97.79752,26.04301],[-97.7941,26.04718],[-97.78928,26.04775],[-97.78892,26.04982],[-97.79307,26.05328],[-97.79913,26.05341],[-97.80176,26.06013],[-97.81079,26.05584],[-97.81245,26.05183],[-97.81164,26.04591],[-97.81374,26.04464],[-97.81658,26.04662],[-97.81537,26.05429],[-97.81833,26.05644],[-97.82634,26.0553],[-97.82938,26.04962],[-97.83418,26.04658],[-97.83584,26.04736],[-97.83643,26.05131],[-97.83898,26.05304],[-97.86038,26.05281],[-97.86191,26.06096],[-97.85932,26.0667],[-97.86164,26.06961],[-97.86394,26.06835],[-97.86902,26.05751],[-97.87126,26.05784],[-97.87566,26.06375],[-97.88152,26.06552],[-97.88093,26.06068],[-97.88239,26.05755],[-97.89878,26.05101],[-97.90303,26.05308],[-97.90246,26.05783],[-97.89895,26.05883],[-97.89336,26.05618],[-97.88894,26.05758],[-97.88478,26.06235],[-97.88647,26.06644],[-97.89204,26.06025],[-97.90117,26.06109],[-97.91109,26.05643],[-97.91998,26.0579],[-97.92688,26.05524],[-97.93136,26.06385],[-97.93412,26.06473],[-97.93684,26.06255],[-97.93201,26.05511],[-97.93488,26.05295],[-97.93813,26.05394],[-97.945,26.06031],[-97.95147,26.06204],[-97.95647,26.06038],[-97.96662,26.05216],[-97.97863,26.05994],[-97.98074,26.06737],[-97.98668,26.06591],[-97.98991,26.05981],[-97.99209,26.05883],[-97.9976,26.06451],[-98.00347,26.06465],[-98.01253,26.05649],[-98.01335,26.0579],[-98.01098,26.06283],[-98.01258,26.06617],[-98.01471,26.06548],[-98.01748,26.06051],[-98.02102,26.05935],[-98.02491,26.06504],[-98.02835,26.06663],[-98.03254,26.06279],[-98.03453,26.0511],[-98.03921,26.04083],[-98.0462,26.0444],[-98.06176,26.04611],[-98.06511,26.04494],[-98.07056,26.03757],[-98.07326,26.03644],[-98.07807,26.03738],[-98.07959,26.04188],[-98.07183,26.04464],[-98.0703,26.05226],[-98.07543,26.06116],[-98.07641,26.06771],[-98.0809,26.07105],[-98.08427,26.07095],[-98.08549,26.06915],[-98.08133,26.06538],[-98.08204,26.06376],[-98.08996,26.05952],[-98.09437,26.05905],[-98.0985,26.061],[-98.10488,26.06757],[-98.12765,26.06252],[-98.1308,26.06616],[-98.12865,26.07261],[-98.13072,26.07418],[-98.13309,26.0737],[-98.13692,26.06965],[-98.13798,26.06],[-98.14379,26.05053],[-98.14652,26.04931],[-98.14916,26.05099],[-98.14978,26.05615],[-98.15193,26.05807],[-98.15915,26.05395],[-98.16129,26.05428],[-98.16201,26.05645],[-98.15873,26.06022],[-98.15874,26.06364],[-98.1683,26.06372],[-98.17296,26.07228],[-98.17735,26.07473],[-98.17912,26.07403],[-98.18028,26.07069],[-98.17819,26.06089],[-98.18053,26.06053],[-98.18424,26.06378],[-98.18842,26.06291],[-98.19119,26.0553],[-98.19413,26.05325],[-98.19933,26.05635],[-98.20472,26.06615],[-98.21339,26.06964],[-98.22022,26.0763],[-98.23078,26.07705],[-98.24936,26.07219],[-98.25121,26.07411],[-98.25161,26.07895],[-98.26428,26.08533],[-98.26729,26.09229],[-98.27706,26.09886],[-98.28592,26.10234],[-98.28806,26.10543],[-98.28614,26.10699],[-98.27025,26.10691],[-98.27122,26.11336],[-98.26564,26.11797],[-98.26632,26.12067],[-98.27597,26.11595],[-98.2907,26.12081],[-98.29663,26.12026],[-98.29953,26.11795],[-98.30313,26.10984],[-98.29809,26.10335],[-98.3014,26.10208],[-98.30602,26.10374],[-98.3102,26.11421],[-98.32453,26.12217],[-98.33523,26.1378],[-98.33432,26.14123],[-98.32682,26.14291],[-98.32858,26.14489],[-98.33546,26.14641],[-98.33796,26.14946],[-98.33775,26.15344],[-98.33306,26.16],[-98.33389,26.16427],[-98.33588,26.16615],[-98.34044,26.16691],[-98.34654,26.16542],[-98.3485,26.16121],[-98.34896,26.15309],[-98.35146,26.15128],[-98.35422,26.15264],[-98.35756,26.15831],[-98.35749,26.16875],[-98.36042,26.17243],[-98.3669,26.16782],[-98.36519,26.16153],[-98.36733,26.15749],[-98.38659,26.15784],[-98.39278,26.16725],[-98.40234,26.17237],[-98.40222,26.17956],[-98.40396,26.18215],[-98.417,26.18417],[-98.42769,26.193],[-98.44258,26.19913],[-98.44457,26.20171],[-98.4443,26.20446],[-98.43947,26.21015],[-98.43884,26.21306],[-98.44017,26.21912],[-98.44435,26.22419],[-98.44944,26.22341],[-98.45486,26.21711],[-98.45739,26.22402],[-98.4609,26.22616],[-98.47065,26.22099],[-98.48117,26.21952],[-98.4831,26.2155],[-98.47866,26.20842],[-98.47789,26.20339],[-98.47959,26.20151],[-98.48229,26.20141],[-98.48332,26.20352],[-98.48223,26.20935],[-98.48664,26.21282],[-98.49257,26.2128],[-98.504,26.20878],[-98.50707,26.20957],[-98.50694,26.21272],[-98.50087,26.22151],[-98.50229,26.2237],[-98.51378,26.2272],[-98.51815,26.22525],[-98.52204,26.22082],[-98.5245,26.22144],[-98.52691,26.22664],[-98.52181,26.2325],[-98.52269,26.23521],[-98.52536,26.23447],[-98.53072,26.22688],[-98.53593,26.22602],[-98.54541,26.24491],[-98.55794,26.24677],[-98.55761,26.24381],[-98.54761,26.23984],[-98.54608,26.23701],[-98.54834,26.2339],[-98.5564,26.23144],[-98.55989,26.22522],[-98.56337,26.22524],[-98.56498,26.2275],[-98.56438,26.23694],[-98.5667,26.24161],[-98.57216,26.24021],[-98.57704,26.23428],[-98.57983,26.23496],[-98.584,26.24507],[-98.58011,26.25023],[-98.57961,26.25362],[-98.58617,26.25785],[-98.60005,26.2575],[-98.61417,26.25179],[-98.61823,26.24752],[-98.62012,26.24918],[-98.61981,26.25531],[-98.62197,26.25846],[-98.62538,26.25946],[-98.63276,26.2512],[-98.63492,26.24212],[-98.64602,26.24099],[-98.65562,26.23579],[-98.66461,26.23533],[-98.67187,26.23751],[-98.6788,26.24487],[-98.67965,26.2487],[-98.67775,26.25706],[-98.68094,26.26277],[-98.68587,26.26495],[-98.70308,26.26655],[-98.71838,26.27196],[-98.71971,26.27598],[-98.71784,26.27789],[-98.711,26.27914],[-98.70515,26.27735],[-98.70093,26.27829],[-98.7,26.2822],[-98.70288,26.28715],[-98.70873,26.28902],[-98.71716,26.28639],[-98.72234,26.29566],[-98.72876,26.29907],[-98.73482,26.29836],[-98.74185,26.29414],[-98.75106,26.29631],[-98.756,26.30369],[-98.75444,26.30774],[-98.75067,26.30803],[-98.74378,26.30299],[-98.74036,26.30273],[-98.73737,26.30488],[-98.73617,26.30949],[-98.73854,26.31347],[-98.74622,26.31694],[-98.74906,26.32214],[-98.75109,26.33123],[-98.7549,26.33147],[-98.76305,26.32658],[-98.77104,26.3249],[-98.77872,26.32616],[-98.78945,26.33059],[-98.78819,26.33788],[-98.79558,26.3475],[-98.79833,26.36031],[-98.80708,26.36934],[-98.81385,26.36607],[-98.8196,26.37078],[-98.82433,26.3708],[-98.832,26.36378],[-98.84377,26.35868],[-98.84818,26.35997],[-98.8526,26.36472],[-98.86061,26.36628],[-98.88887,26.35714],[-98.89624,26.35317],[-98.90098,26.36045],[-98.89939,26.36605],[-98.90089,26.3705],[-98.90328,26.37211],[-98.91422,26.37262],[-98.92252,26.37906],[-98.92413,26.38425],[-98.92352,26.392],[-98.92614,26.39438],[-98.92966,26.39282],[-98.93557,26.38498],[-98.93423,26.37524],[-98.93534,26.37257],[-98.93768,26.37031],[-98.94358,26.36938],[-98.94856,26.37109],[-98.95601,26.37712],[-98.95323,26.38558],[-98.95415,26.39395],[-98.96265,26.39857],[-98.96962,26.39894],[-98.97426,26.40115],[-98.9789,26.39988],[-98.98797,26.39161],[-98.99337,26.39175],[-98.99922,26.39404],[-99.01131,26.39227],[-99.02194,26.40764],[-99.03058,26.41237],[-99.03705,26.41348],[-99.0445,26.41047],[-99.05405,26.40153],[-99.06231,26.39732],[-99.08137,26.39635],[-99.08526,26.39842],[-99.0894,26.40756],[-99.09595,26.41156],[-99.09992,26.41761],[-99.1108,26.42586],[-99.11365,26.43289],[-99.11313,26.43528],[-99.1061,26.43833],[-99.10223,26.44289],[-99.10036,26.45969],[-99.09314,26.46945],[-99.09179,26.47569],[-99.10452,26.49947],[-99.1124,26.50765],[-99.11996,26.51958],[-99.12489,26.52191],[-99.12802,26.52545],[-99.14354,26.52791],[-99.16621,26.53591],[-99.17101,26.54167],[-99.17168,26.54856],[-99.16724,26.55948],[-99.17803,26.62049],[-99.20019,26.65592],[-99.20989,26.69397],[-99.20876,26.7248],[-99.24002,26.74575],[-99.24243,26.78804],[-99.26223,26.81574],[-99.26865,26.84332],[-99.28029,26.85796],[-99.29524,26.86549],[-99.3166,26.86572],[-99.32905,26.87995],[-99.32657,26.88453],[-99.32177,26.90682],[-99.32475,26.91602],[-99.33736,26.92279],[-99.35158,26.92509],[-99.361,26.92892],[-99.36667,26.9289],[-99.37907,26.93435],[-99.38816,26.94392],[-99.39383,26.96067],[-99.39012,26.9663],[-99.37726,26.97366],[-99.37649,26.97732],[-99.37841,26.98],[-99.3872,26.98238],[-99.40334,26.99709],[-99.40741,27.00586],[-99.41542,27.0171],[-99.41985,27.01673],[-99.42807,27.01148],[-99.43281,27.01081],[-99.43922,27.015],[-99.44676,27.02365],[-99.44383,27.03608],[-99.45096,27.05535],[-99.45241,27.06369],[-99.44871,27.06942],[-99.43514,27.07932],[-99.42909,27.09127],[-99.42982,27.09439],[-99.43805,27.10081],[-99.44215,27.10687],[-99.43072,27.12498],[-99.43124,27.13725],[-99.43839,27.14489],[-99.44004,27.15073],[-99.4372,27.15476],[-99.43018,27.15885],[-99.42646,27.1754],[-99.43285,27.20166],[-99.43314,27.21023],[-99.44247,27.21835],[-99.44524,27.22321],[-99.44135,27.23691],[-99.44163,27.25023],[-99.45208,27.26386],[-99.46174,27.26828],[-99.46618,27.26776],[-99.48083,27.2599],[-99.48569,27.25981],[-99.49069,27.26258],[-99.4966,27.272],[-99.48747,27.29],[-99.48792,27.29492],[-99.49179,27.30041],[-99.49563,27.30434],[-99.49982,27.30593],[-99.52124,27.30383],[-99.52894,27.30572],[-99.53585,27.31182],[-99.53798,27.31711],[-99.53125,27.32383],[-99.51952,27.32584],[-99.50447,27.33879],[-99.50771,27.34836],[-99.50772,27.35411],[-99.49924,27.37269],[-99.49244,27.38004],[-99.49281,27.39185],[-99.48953,27.39941],[-99.48757,27.41145],[-99.49552,27.43811],[-99.49543,27.44608],[-99.49281,27.45422],[-99.48354,27.46656],[-99.48251,27.47518],[-99.47884,27.47964],[-99.4818,27.48939],[-99.49337,27.49757],[-99.50218,27.50035],[-99.51377,27.49919],[-99.51998,27.49653],[-99.52591,27.49657],[-99.52819,27.49819],[-99.52528,27.51052],[-99.52549,27.52202],[-99.52253,27.53242],[-99.52207,27.54407],[-99.51892,27.55323],[-99.51364,27.55739],[-99.51132,27.56496],[-99.51284,27.56869],[-99.51582,27.57203],[-99.52966,27.57982],[-99.5355,27.59094],[-99.53956,27.60361],[-99.55445,27.61422],[-99.55755,27.61262],[-99.55879,27.60869],[-99.56086,27.60746],[-99.57933,27.60199],[-99.58433,27.60383],[-99.58459,27.60598],[-99.57935,27.60785],[-99.57688,27.61098],[-99.57726,27.61862],[-99.58374,27.62145],[-99.59214,27.62836],[-99.59533,27.64198],[-99.60395,27.64207],[-99.61678,27.63778],[-99.62172,27.64383],[-99.62425,27.64396],[-99.62715,27.6405],[-99.62514,27.63161],[-99.62793,27.62939],[-99.639,27.62666],[-99.66582,27.63586],[-99.66559,27.64022],[-99.66076,27.64342],[-99.65816,27.64917],[-99.6622,27.6559],[-99.6666,27.65894],[-99.67218,27.66014],[-99.67971,27.65913],[-99.68651,27.6614],[-99.68911,27.66389],[-99.69027,27.66874],[-99.69682,27.663],[-99.69955,27.65546],[-99.70511,27.65513],[-99.71191,27.65871],[-99.72193,27.66655],[-99.72529,27.676],[-99.73759,27.69241],[-99.75723,27.71175],[-99.76067,27.72106],[-99.77006,27.73158],[-99.77445,27.73356],[-99.7885,27.7308],[-99.79759,27.73692],[-99.80168,27.74214],[-99.80694,27.76218],[-99.81355,27.7745],[-99.81889,27.77643],[-99.82357,27.76578],[-99.83278,27.76286],[-99.83716,27.76343],[-99.8429,27.76833],[-99.84346,27.77515],[-99.85099,27.79396],[-99.86833,27.79434],[-99.87558,27.79691],[-99.8779,27.80089],[-99.87388,27.81454],[-99.87797,27.82636],[-99.87587,27.83475],[-99.87705,27.84201],[-99.88154,27.85036],[-99.89271,27.85551],[-99.9013,27.86415],[-99.9043,27.87435],[-99.90321,27.88099],[-99.89396,27.89339],[-99.89367,27.90004],[-99.89987,27.91186],[-99.91868,27.91882],[-99.92592,27.92708],[-99.92425,27.93132],[-99.9265,27.93558],[-99.9338,27.93758],[-99.93769,27.94164],[-99.93871,27.95319],[-99.93351,27.96339],[-99.93142,27.98057],[-99.94009,27.98248],[-99.96173,27.98353],[-99.99027,27.99342],[-100.00765,28.02097],[-100.01314,28.03835],[-100.01792,28.06512],[-100.02815,28.07296],[-100.04367,28.07792],[-100.05265,28.08426],[-100.05715,28.09469],[-100.05619,28.10369],[-100.06798,28.11401],[-100.07554,28.12491],[-100.08402,28.14467],[-100.08999,28.14834],[-100.12018,28.15593],[-100.14207,28.16838],[-100.15966,28.16776],[-100.16825,28.17128],[-100.17385,28.17889],[-100.1863,28.18604],[-100.1964,28.19007],[-100.20814,28.19044],[-100.21171,28.19426],[-100.21637,28.22327],[-100.22099,28.233],[-100.22613,28.23576],[-100.2449,28.23414],[-100.25364,28.2372],[-100.2725,28.25589],[-100.28222,28.26984],[-100.29133,28.27552],[-100.29408,28.28052],[-100.29416,28.28436],[-100.28731,28.30202],[-100.28636,28.31215],[-100.28874,28.31713],[-100.31433,28.34605],[-100.31861,28.35978],[-100.34109,28.38403],[-100.34417,28.38937],[-100.34954,28.40276],[-100.34289,28.41215],[-100.3362,28.42935],[-100.33742,28.44213],[-100.34201,28.45026],[-100.35008,28.45869],[-100.3581,28.4643],[-100.36807,28.47525],[-100.36866,28.47771],[-100.36404,28.48188],[-100.35235,28.48272],[-100.34351,28.48669],[-100.33652,28.4925],[-100.33391,28.49922],[-100.33985,28.5022],[-100.35548,28.5046],[-100.36185,28.50821],[-100.38802,28.5146],[-100.39479,28.52835],[-100.40202,28.53231],[-100.40591,28.53723],[-100.41096,28.54948],[-100.40932,28.55682],[-100.4049,28.56077],[-100.40449,28.56385],[-100.39736,28.57496],[-100.39678,28.58079],[-100.39836,28.58517],[-100.42987,28.59622],[-100.43199,28.59795],[-100.43403,28.60658],[-100.44407,28.60752],[-100.44729,28.60926],[-100.44872,28.61606],[-100.44564,28.63699],[-100.44689,28.64214],[-100.44967,28.64299],[-100.46146,28.64086],[-100.47437,28.64704],[-100.47957,28.65548],[-100.49637,28.65851],[-100.50056,28.66211],[-100.50988,28.68983],[-100.51211,28.70649],[-100.5085,28.71088],[-100.50687,28.71681],[-100.50769,28.74091],[-100.51526,28.74299],[-100.51494,28.75197],[-100.52077,28.75748],[-100.52848,28.75607],[-100.53336,28.75914],[-100.52991,28.77023],[-100.53165,28.77363],[-100.5358,28.77668],[-100.53762,28.78173],[-100.53277,28.78963],[-100.53344,28.80004],[-100.53547,28.8055],[-100.5415,28.80806],[-100.54578,28.8129],[-100.54649,28.82547],[-100.56136,28.82927],[-100.57045,28.82617],[-100.57466,28.82895],[-100.57691,28.83564],[-100.57292,28.84835],[-100.58116,28.85668],[-100.58991,28.86183],[-100.59146,28.86432],[-100.59112,28.87274],[-100.59677,28.87359],[-100.59863,28.87533],[-100.59794,28.88002],[-100.59074,28.88344],[-100.58956,28.8858],[-100.59168,28.88936],[-100.60003,28.88721],[-100.6036,28.88849],[-100.60166,28.90191],[-100.61391,28.90138],[-100.61774,28.90809],[-100.62222,28.90952],[-100.62599,28.9076],[-100.62687,28.90402],[-100.63178,28.90304],[-100.63606,28.91086],[-100.64071,28.91448],[-100.63919,28.91619],[-100.63056,28.91732],[-100.63006,28.92333],[-100.63866,28.92766],[-100.6442,28.93836],[-100.65162,28.94389],[-100.64689,28.95657],[-100.65019,28.96283],[-100.64628,28.96838],[-100.64872,28.97753],[-100.64607,28.98834],[-100.64911,28.99604],[-100.64983,29.00532],[-100.65587,29.01732],[-100.66192,29.03809],[-100.66325,29.04642],[-100.66196,29.05841],[-100.66434,29.07675],[-100.67492,29.10059],[-100.68497,29.11134],[-100.69524,29.11612],[-100.71026,29.1199],[-100.72638,29.12849],[-100.73864,29.14013],[-100.73711,29.14777],[-100.73814,29.14919],[-100.74548,29.15405],[-100.75949,29.15699],[-100.76345,29.16011],[-100.76424,29.1655],[-100.77274,29.16838],[-100.77598,29.17295],[-100.76593,29.18508],[-100.76696,29.19553],[-100.76943,29.19924],[-100.77616,29.20088],[-100.77687,29.20441],[-100.77403,29.21107],[-100.78163,29.22035],[-100.78491,29.2277],[-100.78688,29.22848],[-100.78986,29.22596],[-100.79252,29.22591],[-100.79586,29.22885],[-100.79716,29.23415],[-100.79434,29.2412],[-100.79644,29.24596],[-100.80679,29.25268],[-100.81648,29.25393],[-100.81326,29.26118],[-100.81442,29.26361],[-100.81743,29.26433],[-100.82625,29.26145],[-100.83605,29.26188],[-100.84913,29.27176],[-100.85333,29.27236],[-100.85578,29.27561],[-100.86629,29.27667],[-100.8767,29.27997],[-100.8787,29.28165],[-100.88013,29.28671],[-100.88182,29.29934],[-100.88644,29.30771],[-100.89417,29.31049],[-100.89669,29.30915],[-100.90024,29.31006],[-100.90624,29.31317],[-100.90888,29.31722],[-100.91793,29.32016],[-100.91993,29.32593],[-100.92808,29.32665],[-100.94062,29.33289],[-100.94324,29.34221],[-100.94919,29.34734],[-100.9642,29.34718],[-100.97121,29.3512],[-100.97302,29.35471],[-100.98319,29.35967],[-101.00462,29.36549],[-101.01059,29.36885],[-101.01411,29.37404],[-101.0135,29.38062],[-101.01741,29.38813],[-101.03729,29.40661],[-101.03882,29.411],[-101.03786,29.41469],[-101.04328,29.42961],[-101.05739,29.44094],[-101.05731,29.4471],[-101.06039,29.45851],[-101.08826,29.4697],[-101.10226,29.47062],[-101.11541,29.46834],[-101.12981,29.47854],[-101.14171,29.47319],[-101.15263,29.47894],[-101.17174,29.50394],[-101.1744,29.5145],[-101.18111,29.51681],[-101.19408,29.51984],[-101.22706,29.52203],[-101.2364,29.52394],[-101.25505,29.52015],[-101.26123,29.53028],[-101.2611,29.53753],[-101.24911,29.55884],[-101.24159,29.56491],[-101.25238,29.60398],[-101.24751,29.61818],[-101.25147,29.62517],[-101.26306,29.63036],[-101.27073,29.62838],[-101.27765,29.62087],[-101.27984,29.61624],[-101.27752,29.59779],[-101.27874,29.59024],[-101.28135,29.58503],[-101.28904,29.57553],[-101.29389,29.57239],[-101.29783,29.57285],[-101.30342,29.57649],[-101.31006,29.58663],[-101.3136,29.60184],[-101.3122,29.61323],[-101.30102,29.63739],[-101.3006,29.64406],[-101.30316,29.65139],[-101.30778,29.6559],[-101.31618,29.65936],[-101.34753,29.66219],[-101.35009,29.66089],[-101.35608,29.6502],[-101.35956,29.6491],[-101.36196,29.65081],[-101.36618,29.66863],[-101.37342,29.68043],[-101.37186,29.69311],[-101.37289,29.69902],[-101.3961,29.71304],[-101.39865,29.71865],[-101.39616,29.72902],[-101.39739,29.73546],[-101.40105,29.73842],[-101.41213,29.7428],[-101.41571,29.74679],[-101.41482,29.75243],[-101.40319,29.75809],[-101.39956,29.76162],[-101.39852,29.76638],[-101.40092,29.77044],[-101.40502,29.77188],[-101.40942,29.77086],[-101.42607,29.7604],[-101.43703,29.75139],[-101.44759,29.75053],[-101.45085,29.75342],[-101.45566,29.77191],[-101.45356,29.7857],[-101.45674,29.78861],[-101.46241,29.78973],[-101.47965,29.78382],[-101.48569,29.77528],[-101.50177,29.765],[-101.51729,29.76495],[-101.53138,29.75909],[-101.53641,29.75874],[-101.53903,29.76067],[-101.53973,29.76462],[-101.53826,29.78728],[-101.53549,29.79887],[-101.54094,29.80903],[-101.54466,29.81152],[-101.55411,29.80348],[-101.56876,29.79766],[-101.57433,29.78808],[-101.57271,29.77361],[-101.57539,29.76946],[-101.59044,29.77087],[-101.60375,29.77426],[-101.61805,29.76987],[-101.62737,29.77068],[-101.63061,29.7682],[-101.63425,29.75947],[-101.64513,29.75426],[-101.65172,29.75823],[-101.65443,29.76512],[-101.65947,29.76739],[-101.66222,29.7711],[-101.67178,29.7682],[-101.67451,29.76539],[-101.67504,29.76145],[-101.67744,29.76042],[-101.68159,29.76109],[-101.686,29.76851],[-101.68971,29.77106],[-101.69778,29.76584],[-101.7098,29.76172],[-101.71266,29.76357],[-101.71968,29.77576],[-101.72374,29.77627],[-101.73005,29.7718],[-101.73492,29.7715],[-101.7388,29.77307],[-101.74178,29.77858],[-101.75396,29.77747],[-101.76342,29.78413],[-101.77748,29.78938],[-101.7855,29.78827],[-101.78626,29.78227],[-101.78907,29.77934],[-101.80478,29.78027],[-101.81113,29.78426],[-101.81397,29.7917],[-101.81322,29.79472],[-101.80693,29.79907],[-101.80388,29.80354],[-101.81739,29.81152],[-101.82173,29.81074],[-101.82565,29.80682],[-101.82416,29.80056],[-101.81879,29.79182],[-101.82018,29.78901],[-101.82379,29.7874],[-101.83697,29.79298],[-101.84615,29.80187],[-101.84888,29.8067],[-101.85277,29.80781],[-101.86674,29.79795],[-101.87574,29.79383],[-101.89294,29.79783],[-101.91159,29.79808],[-101.91547,29.79553],[-101.92345,29.78505],[-101.92958,29.78249],[-101.93384,29.786],[-101.93241,29.79219],[-101.9359,29.79982],[-101.94573,29.80174],[-101.95449,29.79566],[-101.95724,29.79589],[-101.96328,29.79984],[-101.96534,29.80565],[-101.96476,29.80965],[-101.96673,29.81258],[-101.9761,29.81584],[-101.98194,29.81465],[-101.98307,29.80972],[-101.98178,29.80572],[-101.98413,29.7993],[-101.98754,29.79676],[-101.991,29.79759],[-101.99459,29.80492],[-101.99671,29.80609],[-102.01553,29.79747],[-102.02176,29.80246],[-102.02868,29.80193],[-102.03509,29.80425],[-102.03873,29.80295],[-102.04114,29.79958],[-102.03867,29.79186],[-102.04088,29.79001],[-102.047,29.78953],[-102.04991,29.78518],[-102.05509,29.78697],[-102.07313,29.78669],[-102.07725,29.79217],[-102.08383,29.79497],[-102.09402,29.79135],[-102.10155,29.79358],[-102.10868,29.79179],[-102.11243,29.79344],[-102.11574,29.79236],[-102.11819,29.79882],[-102.11713,29.80042],[-102.11955,29.80241],[-102.12325,29.8019],[-102.12877,29.79839],[-102.14328,29.80315],[-102.15007,29.81101],[-102.15998,29.81438],[-102.16144,29.8188],[-102.16712,29.82576],[-102.17975,29.82592],[-102.18141,29.83106],[-102.17852,29.83947],[-102.18177,29.84563],[-102.18731,29.84875],[-102.19175,29.84633],[-102.19384,29.83826],[-102.19642,29.83644],[-102.19982,29.83693],[-102.2093,29.8443],[-102.21481,29.84389],[-102.22345,29.8404],[-102.23098,29.84797],[-102.24475,29.84867],[-102.2432,29.85845],[-102.24673,29.86418],[-102.24998,29.86305],[-102.25288,29.85357],[-102.26159,29.85315],[-102.26417,29.85535],[-102.26185,29.86355],[-102.26452,29.86729],[-102.26892,29.86784],[-102.27713,29.8628],[-102.2811,29.86295],[-102.28749,29.87153],[-102.29578,29.87376],[-102.30051,29.87754],[-102.31229,29.87721],[-102.31579,29.87991],[-102.32089,29.87897],[-102.32475,29.87288],[-102.32269,29.86558],[-102.32352,29.86378],[-102.33206,29.86285],[-102.33361,29.86819],[-102.34127,29.86925],[-102.34294,29.8655],[-102.34991,29.8622],[-102.35204,29.85304],[-102.36077,29.84956],[-102.36465,29.84527],[-102.36295,29.83177],[-102.36932,29.82096],[-102.37316,29.80807],[-102.37744,29.80045],[-102.37733,29.78987],[-102.38994,29.78198],[-102.38654,29.77738],[-102.385,29.77183],[-102.38718,29.76139],[-102.3899,29.76204],[-102.39507,29.76924],[-102.39884,29.76956],[-102.40457,29.7652],[-102.40925,29.76452],[-102.41214,29.76809],[-102.42163,29.76928],[-102.43409,29.77675],[-102.43895,29.77323],[-102.44821,29.77745],[-102.45804,29.77467],[-102.46206,29.78098],[-102.46552,29.78337],[-102.4689,29.78168],[-102.47206,29.77633],[-102.48065,29.77607],[-102.48213,29.77752],[-102.48199,29.78319],[-102.48691,29.7866],[-102.49891,29.78102],[-102.51731,29.78373],[-102.51928,29.78068],[-102.51836,29.77857],[-102.51047,29.77308],[-102.51346,29.76547],[-102.52175,29.76008],[-102.53369,29.75513],[-102.54144,29.74781],[-102.54833,29.74473],[-102.55487,29.74871],[-102.55495,29.75504],[-102.56296,29.76767],[-102.56816,29.77141],[-102.57404,29.76709],[-102.57201,29.75707],[-102.57375,29.75478],[-102.57923,29.7551],[-102.5894,29.74922],[-102.5984,29.75149],[-102.6072,29.74834],[-102.61279,29.74825],[-102.62281,29.73648],[-102.63053,29.73409],[-102.64555,29.73383],[-102.66327,29.73624],[-102.66732,29.73935],[-102.66817,29.7458],[-102.67433,29.74449],[-102.67703,29.74149],[-102.68166,29.72824],[-102.68564,29.72645],[-102.68816,29.72241],[-102.69111,29.72193],[-102.68926,29.70514],[-102.69726,29.69819],[-102.69926,29.69123],[-102.69953,29.68531],[-102.69348,29.67714],[-102.69646,29.67139],[-102.70154,29.67232],[-102.70428,29.67121],[-102.70889,29.66663],[-102.71229,29.65892],[-102.71901,29.65346],[-102.7254,29.65111],[-102.72422,29.64828],[-102.72576,29.64348],[-102.72977,29.6408],[-102.73711,29.64164],[-102.74196,29.63297],[-102.74208,29.63008],[-102.73857,29.62365],[-102.7388,29.60776],[-102.74167,29.60294],[-102.74039,29.59816],[-102.74553,29.59285],[-102.76014,29.59849],[-102.76473,29.5978],[-102.76825,29.59515],[-102.76218,29.57991],[-102.76612,29.57236],[-102.77373,29.57331],[-102.77364,29.56696],[-102.77763,29.5609],[-102.77732,29.55448],[-102.7715,29.54858],[-102.77641,29.54719],[-102.77913,29.54353],[-102.78289,29.54202],[-102.79048,29.54365],[-102.7931,29.54041],[-102.79228,29.53315],[-102.79879,29.52668],[-102.80877,29.52211],[-102.80683,29.5158],[-102.80746,29.50401],[-102.80452,29.50133],[-102.80727,29.49407],[-102.80076,29.4863],[-102.80455,29.48374],[-102.81408,29.48269],[-102.81562,29.47564],[-102.81424,29.47153],[-102.82175,29.46474],[-102.82574,29.45774],[-102.82398,29.45207],[-102.81932,29.4507],[-102.83103,29.4442],[-102.83175,29.43667],[-102.82939,29.43257],[-102.82982,29.42748],[-102.82708,29.41745],[-102.8334,29.4098],[-102.82677,29.40757],[-102.82581,29.40251],[-102.81961,29.40371],[-102.81372,29.40231],[-102.81243,29.4005],[-102.81591,29.39707],[-102.82013,29.39841],[-102.82553,29.39692],[-102.83279,29.3885],[-102.83416,29.37895],[-102.84462,29.37513],[-102.84544,29.36516],[-102.84058,29.36169],[-102.83991,29.3591],[-102.86111,29.35187],[-102.87171,29.35209],[-102.87808,29.35412],[-102.88423,29.34806],[-102.87991,29.33886],[-102.88486,29.32522],[-102.88444,29.32106],[-102.88804,29.31584],[-102.88737,29.31185],[-102.89319,29.30802],[-102.89015,29.30249],[-102.88818,29.29337],[-102.89086,29.28768],[-102.89648,29.28499],[-102.8987,29.28077],[-102.90253,29.27998],[-102.90311,29.27602],[-102.8994,29.26911],[-102.90211,29.26508],[-102.90585,29.26309],[-102.90632,29.259],[-102.90312,29.25432],[-102.89642,29.25393],[-102.88793,29.24585],[-102.88093,29.24615],[-102.87174,29.2416],[-102.87149,29.23191],[-102.86656,29.22669],[-102.86813,29.22314],[-102.87743,29.2168],[-102.87853,29.21385],[-102.89528,29.20841],[-102.89915,29.20921],[-102.90851,29.21955],[-102.91292,29.21902],[-102.91622,29.21489],[-102.91289,29.20632],[-102.91448,29.2002],[-102.91847,29.19887],[-102.91785,29.1914],[-102.93249,29.19455],[-102.93812,29.18901],[-102.94439,29.18941],[-102.94747,29.18142],[-102.9509,29.17834],[-102.95087,29.17397],[-102.95712,29.1788],[-102.96542,29.18088],[-102.97646,29.18642],[-102.98618,29.18314],[-102.99002,29.18338],[-102.99638,29.17868],[-102.99821,29.17374],[-102.99618,29.16073],[-103.00286,29.14957],[-103.00848,29.14815],[-103.00913,29.13886],[-103.01054,29.13719],[-103.01435,29.13674],[-103.01337,29.13242],[-103.0165,29.12487],[-103.02232,29.12267],[-103.02938,29.11562],[-103.0369,29.11383],[-103.03239,29.10467],[-103.03348,29.10175],[-103.03809,29.09785],[-103.04554,29.09549],[-103.0545,29.10082],[-103.06446,29.09153],[-103.06957,29.09363],[-103.07604,29.09214],[-103.07995,29.08732],[-103.07665,29.07975],[-103.07706,29.07578],[-103.0874,29.06722],[-103.08544,29.05933],[-103.08583,29.05399],[-103.08989,29.05335],[-103.09102,29.05451],[-103.09238,29.06467],[-103.09552,29.0647],[-103.09714,29.06087],[-103.10065,29.06068],[-103.10048,29.05139],[-103.10518,29.04424],[-103.10652,29.03853],[-103.10441,29.03351],[-103.09836,29.02775],[-103.09844,29.02547],[-103.10208,29.01761],[-103.10863,29.01313],[-103.11732,29.0003],[-103.11414,28.98896],[-103.11648,28.98454],[-103.12348,28.98438],[-103.12639,28.98227],[-103.13495,28.98364],[-103.1425,28.97851],[-103.15061,28.97548],[-103.15294,28.97272],[-103.16397,28.97281],[-103.16588,28.97429],[-103.16645,28.97901],[-103.17444,28.98078],[-103.17847,28.9777],[-103.18315,28.98279],[-103.2012,28.98703],[-103.21495,28.98769],[-103.22029,28.98364],[-103.22763,28.99156],[-103.2387,28.98192],[-103.25147,28.98063],[-103.25275,28.98623],[-103.268,28.99609],[-103.27143,28.98509],[-103.27899,28.9778],[-103.28339,28.97681],[-103.28646,28.98048],[-103.28567,28.98244],[-103.28246,28.98344],[-103.28182,28.98963],[-103.28729,29.00154],[-103.29724,29.00669],[-103.30888,29.00358],[-103.3139,29.00704],[-103.31615,29.01071],[-103.30852,29.01821],[-103.3068,29.02277],[-103.30806,29.02465],[-103.3145,29.02589],[-103.32355,29.01754],[-103.32872,29.01616],[-103.3349,29.01732],[-103.3389,29.02052],[-103.34192,29.02766],[-103.33426,29.02796],[-103.32715,29.03363],[-103.32749,29.03963],[-103.33092,29.04321],[-103.34083,29.04406],[-103.34577,29.04637],[-103.34836,29.04281],[-103.34794,29.03894],[-103.35103,29.02803],[-103.35586,29.0209],[-103.35944,29.01878],[-103.37435,29.02349],[-103.38352,29.02424],[-103.38611,29.02225],[-103.3876,29.02382],[-103.38777,29.03159],[-103.39091,29.03468],[-103.40075,29.03112],[-103.40311,29.03246],[-103.40446,29.03932],[-103.41553,29.03797],[-103.41735,29.03967],[-103.41704,29.0423],[-103.41913,29.04341],[-103.42834,29.04209],[-103.43335,29.04384],[-103.43354,29.04528],[-103.42989,29.04819],[-103.43004,29.05008],[-103.43473,29.05525],[-103.43439,29.05733],[-103.44339,29.05974],[-103.44968,29.06512],[-103.45,29.07265],[-103.46092,29.07261],[-103.46081,29.06841],[-103.46371,29.06575],[-103.47145,29.06651],[-103.47373,29.07018],[-103.47048,29.07771],[-103.47026,29.08498],[-103.47564,29.08745],[-103.47849,29.09176],[-103.48438,29.09449],[-103.49503,29.1091],[-103.50044,29.10793],[-103.50055,29.10583],[-103.5056,29.10874],[-103.50592,29.11125],[-103.50078,29.11466],[-103.503,29.11911],[-103.50911,29.1183],[-103.51616,29.12123],[-103.52483,29.12137],[-103.52348,29.12712],[-103.52468,29.13689],[-103.5388,29.14489],[-103.54765,29.1431],[-103.55047,29.1441],[-103.55265,29.14832],[-103.5504,29.15527],[-103.55412,29.15864],[-103.56046,29.15479],[-103.57393,29.15355],[-103.57918,29.15019],[-103.58642,29.14971],[-103.59405,29.15066],[-103.61082,29.16528],[-103.62783,29.16323],[-103.63364,29.15854],[-103.64026,29.1613],[-103.65021,29.15634],[-103.652,29.15791],[-103.65079,29.161],[-103.6579,29.16987],[-103.66476,29.17088],[-103.66913,29.17354],[-103.67779,29.17383],[-103.68897,29.17843],[-103.69901,29.17769],[-103.70496,29.18488],[-103.71169,29.18475],[-103.71591,29.18096],[-103.71838,29.18078],[-103.72507,29.19193],[-103.72885,29.19298],[-103.72965,29.19703],[-103.73773,29.20254],[-103.74236,29.20909],[-103.74304,29.21539],[-103.74083,29.21879],[-103.7422,29.22164],[-103.75069,29.21943],[-103.75727,29.22072],[-103.75739,29.22321],[-103.75478,29.22488],[-103.75441,29.22696],[-103.75876,29.23312],[-103.76294,29.23251],[-103.76819,29.22768],[-103.76768,29.22473],[-103.76977,29.22023],[-103.77176,29.21924],[-103.77682,29.22027],[-103.77778,29.2235],[-103.78174,29.22741],[-103.78161,29.24056],[-103.78084,29.24342],[-103.77606,29.24337],[-103.77537,29.24796],[-103.78359,29.26534],[-103.7889,29.26518],[-103.79622,29.25927],[-103.79996,29.25838],[-103.80631,29.26086],[-103.80672,29.26393],[-103.80924,29.26595],[-103.80758,29.27006],[-103.80959,29.27279],[-103.8136,29.27395],[-103.82599,29.26916],[-103.83589,29.27309],[-103.83774,29.27827],[-103.85675,29.28198],[-103.86317,29.27931],[-103.86577,29.28212],[-103.8693,29.28059],[-103.87337,29.28335],[-103.88077,29.28498],[-103.88469,29.28438],[-103.88554,29.28129],[-103.88929,29.27873],[-103.89941,29.28742],[-103.91072,29.28422],[-103.91779,29.28438],[-103.91843,29.28987],[-103.92469,29.29399],[-103.93803,29.29292],[-103.94961,29.29544],[-103.95223,29.29755],[-103.95458,29.29663],[-103.9677,29.29989],[-103.97022,29.2968],[-103.97561,29.29622],[-103.99217,29.30393],[-104.00069,29.30536],[-104.01605,29.31207],[-104.01984,29.31198],[-104.0377,29.31976],[-104.05535,29.33053],[-104.05677,29.33744],[-104.0668,29.34098],[-104.07263,29.3462],[-104.07851,29.34484],[-104.08254,29.34627],[-104.09133,29.3538],[-104.09004,29.35919],[-104.09799,29.36168],[-104.09817,29.36647],[-104.1064,29.37308],[-104.11156,29.37389],[-104.1197,29.37094],[-104.1214,29.37195],[-104.12169,29.37733],[-104.12388,29.38105],[-104.12987,29.37978],[-104.13579,29.38478],[-104.13833,29.38159],[-104.14204,29.38135],[-104.14484,29.38812],[-104.15082,29.38727],[-104.15408,29.39372],[-104.16163,29.39158],[-104.16707,29.39483],[-104.16881,29.39757],[-104.16623,29.39974],[-104.1675,29.40301],[-104.17422,29.41024],[-104.17832,29.41119],[-104.18022,29.41347],[-104.18136,29.42642],[-104.19383,29.43543],[-104.19606,29.44284],[-104.20568,29.44608],[-104.21796,29.45683],[-104.21334,29.46215],[-104.21104,29.47661],[-104.20895,29.48066],[-104.2131,29.48532],[-104.21577,29.48553],[-104.23062,29.47883],[-104.23348,29.48489],[-104.23372,29.49328],[-104.23762,29.49763],[-104.24133,29.49766],[-104.25372,29.50639],[-104.26097,29.50676],[-104.26225,29.50956],[-104.26128,29.51149],[-104.26418,29.51408],[-104.29231,29.51959],[-104.2934,29.52258],[-104.29718,29.52406],[-104.31168,29.52336],[-104.31168,29.52926],[-104.31523,29.53205],[-104.3183,29.5319],[-104.32147,29.52841],[-104.32077,29.5258],[-104.32275,29.52192],[-104.32772,29.52316],[-104.33408,29.51968],[-104.33809,29.51996],[-104.37074,29.54282],[-104.38131,29.5436],[-104.39449,29.55576],[-104.39443,29.56104],[-104.40009,29.5727],[-104.45224,29.60357],[-104.45691,29.60888],[-104.46402,29.6102],[-104.46678,29.60926],[-104.46762,29.61313],[-104.4656,29.61525],[-104.4658,29.61835],[-104.47351,29.61793],[-104.47654,29.62839],[-104.48541,29.62832],[-104.48748,29.63072],[-104.48741,29.63366],[-104.49487,29.63385],[-104.49684,29.63575],[-104.49641,29.63904],[-104.49802,29.6395],[-104.50682,29.63699],[-104.5063,29.63324],[-104.50896,29.63317],[-104.51589,29.64117],[-104.5134,29.64135],[-104.51003,29.64435],[-104.51248,29.64661],[-104.51792,29.64766],[-104.51671,29.65251],[-104.5249,29.65936],[-104.52579,29.66785],[-104.52847,29.66759],[-104.52873,29.6698],[-104.53121,29.67077],[-104.53337,29.66899],[-104.53296,29.66664],[-104.53568,29.66668],[-104.5363,29.67484],[-104.5441,29.68063],[-104.5424,29.68406],[-104.53366,29.68616],[-104.53038,29.69057],[-104.54265,29.6956],[-104.54559,29.69867],[-104.54348,29.70433],[-104.54621,29.70914],[-104.54402,29.71114],[-104.54756,29.71433],[-104.545,29.716],[-104.5473,29.71752],[-104.55002,29.7161],[-104.5523,29.71732],[-104.5492,29.72048],[-104.55268,29.72369],[-104.54902,29.72761],[-104.54954,29.7304],[-104.55559,29.73127],[-104.55626,29.73528],[-104.56043,29.73543],[-104.55908,29.7378],[-104.55033,29.73857],[-104.54968,29.74102],[-104.55169,29.74077],[-104.55347,29.74277],[-104.55553,29.74204],[-104.55736,29.74542],[-104.57006,29.75279],[-104.56959,29.75701],[-104.5672,29.75681],[-104.5658,29.75909],[-104.56672,29.76005],[-104.564,29.76124],[-104.56594,29.76175],[-104.56626,29.76516],[-104.56847,29.76602],[-104.56568,29.76911],[-104.56595,29.77116],[-104.57084,29.77848],[-104.57896,29.78282],[-104.57824,29.78766],[-104.58236,29.79228],[-104.58167,29.79493],[-104.58987,29.79603],[-104.59091,29.79886],[-104.58738,29.80003],[-104.58606,29.80215],[-104.5911,29.80922],[-104.59249,29.81037],[-104.59401,29.80922],[-104.59393,29.80807],[-104.59181,29.80837],[-104.59213,29.8066],[-104.59519,29.80544],[-104.60111,29.81592],[-104.6035,29.81713],[-104.60503,29.81589],[-104.60747,29.8193],[-104.61029,29.81938],[-104.60882,29.82803],[-104.61289,29.82732],[-104.61483,29.82968],[-104.61988,29.8305],[-104.62031,29.83293],[-104.61268,29.83464],[-104.60966,29.83974],[-104.6156,29.84641],[-104.61931,29.84428],[-104.61959,29.8419],[-104.62165,29.84365],[-104.62182,29.84185],[-104.62482,29.84285],[-104.62168,29.847],[-104.62193,29.84972],[-104.62969,29.85257],[-104.63023,29.86317],[-104.63353,29.87083],[-104.63782,29.87417],[-104.64108,29.8738],[-104.64633,29.8788],[-104.64661,29.88404],[-104.65269,29.8888],[-104.65065,29.8912],[-104.6517,29.89238],[-104.65602,29.88918],[-104.65846,29.89101],[-104.65906,29.90138],[-104.65528,29.90281],[-104.65527,29.90559],[-104.66242,29.90541],[-104.6619,29.90212],[-104.66516,29.90129],[-104.66635,29.90293],[-104.66559,29.90884],[-104.66875,29.91134],[-104.67418,29.91073],[-104.67687,29.91288],[-104.67617,29.91603],[-104.68004,29.92124],[-104.67861,29.92671],[-104.68312,29.92902],[-104.68318,29.93174],[-104.68036,29.93056],[-104.67939,29.93267],[-104.68281,29.93549],[-104.68136,29.938],[-104.68247,29.93969],[-104.67894,29.93819],[-104.67789,29.94074],[-104.68086,29.94715],[-104.67715,29.95039],[-104.67804,29.95177],[-104.67442,29.9508],[-104.67326,29.95466],[-104.67431,29.9567],[-104.68008,29.95535],[-104.6807,29.95702],[-104.68528,29.95673],[-104.68189,29.9691],[-104.68556,29.9707],[-104.68013,29.97427],[-104.68032,29.97697],[-104.68836,29.97376],[-104.69359,29.97538],[-104.6886,29.97992],[-104.68831,29.9846],[-104.68587,29.98716],[-104.68578,29.99038],[-104.69026,29.99001],[-104.69511,29.99255],[-104.68765,29.99549],[-104.68872,29.99967],[-104.6905,30.00085],[-104.68951,30.00224],[-104.69071,30.003],[-104.69184,30.00066],[-104.69421,30.00218],[-104.69384,30.00755],[-104.69056,30.00834],[-104.6896,30.01058],[-104.6898,30.01488],[-104.69365,30.01913],[-104.70189,30.02101],[-104.70409,30.02354],[-104.70126,30.03553],[-104.69499,30.03709],[-104.70701,30.05127],[-104.70413,30.05515],[-104.7048,30.05859],[-104.70211,30.05985],[-104.7036,30.06437],[-104.69795,30.06509],[-104.69126,30.07038],[-104.69358,30.07198],[-104.69342,30.07395],[-104.68802,30.07383],[-104.68683,30.07645],[-104.68962,30.07556],[-104.69093,30.0779],[-104.68604,30.08203],[-104.68681,30.08369],[-104.68524,30.08509],[-104.68751,30.08736],[-104.68705,30.08595],[-104.68927,30.08517],[-104.69001,30.08904],[-104.6865,30.0914],[-104.68518,30.0996],[-104.68645,30.09958],[-104.68838,30.0952],[-104.69197,30.0958],[-104.69438,30.1021],[-104.69191,30.10866],[-104.69011,30.1062],[-104.68754,30.10587],[-104.68556,30.11001],[-104.69175,30.11133],[-104.69218,30.1149],[-104.68995,30.11679],[-104.69516,30.11789],[-104.69396,30.12156],[-104.69664,30.13405],[-104.69304,30.13543],[-104.69201,30.13872],[-104.68931,30.13776],[-104.68964,30.14084],[-104.6863,30.14148],[-104.68546,30.14436],[-104.68582,30.14555],[-104.68947,30.14565],[-104.68841,30.14742],[-104.69021,30.14922],[-104.68695,30.15232],[-104.68955,30.15429],[-104.68762,30.15949],[-104.68855,30.1663],[-104.68654,30.17319],[-104.68799,30.1767],[-104.68717,30.17955],[-104.69116,30.18391],[-104.69336,30.18927],[-104.69729,30.19176],[-104.69627,30.19546],[-104.69716,30.19777],[-104.69996,30.19872],[-104.70057,30.20543],[-104.70512,30.20832],[-104.70254,30.21281],[-104.71142,30.2231],[-104.70791,30.22653],[-104.70633,30.23466],[-104.71329,30.2377],[-104.71911,30.24709],[-104.72391,30.24949],[-104.72433,30.253],[-104.73362,30.26131],[-104.73751,30.26155],[-104.73756,30.2583],[-104.73616,30.25722],[-104.73708,30.25575],[-104.74067,30.25963],[-104.75019,30.26159],[-104.75188,30.26381],[-104.74927,30.26793],[-104.74873,30.27427],[-104.75098,30.2715],[-104.75125,30.27375],[-104.75465,30.27167],[-104.75705,30.27429],[-104.75815,30.27141],[-104.76041,30.2718],[-104.7602,30.27433],[-104.7629,30.2744],[-104.75806,30.28309],[-104.76137,30.3004],[-104.7671,30.30374],[-104.76555,30.30639],[-104.77275,30.30267],[-104.77585,30.30445],[-104.77963,30.30345],[-104.77695,30.31021],[-104.78335,30.31632],[-104.78927,30.31852],[-104.78901,30.32187],[-104.79158,30.3221],[-104.79153,30.32545],[-104.79768,30.33039],[-104.80805,30.33327],[-104.81188,30.33289],[-104.81034,30.34148],[-104.82023,30.34702],[-104.82276,30.35091],[-104.81464,30.35344],[-104.814,30.36015],[-104.81116,30.36257],[-104.81175,30.36685],[-104.81623,30.36588],[-104.8198,30.36858],[-104.81665,30.37528],[-104.8307,30.37275],[-104.83753,30.37373],[-104.83956,30.37638],[-104.84587,30.37906],[-104.84854,30.38349],[-104.85398,30.38544],[-104.85961,30.39039],[-104.85453,30.40062],[-104.85717,30.40946],[-104.85153,30.41376],[-104.84813,30.41367],[-104.84918,30.41804],[-104.84815,30.41989],[-104.84984,30.4215],[-104.85015,30.41931],[-104.85269,30.41887],[-104.85701,30.42171],[-104.85707,30.42437],[-104.86162,30.42615],[-104.85852,30.43174],[-104.85852,30.4375],[-104.8606,30.44004],[-104.86823,30.44123],[-104.86468,30.45022],[-104.8655,30.45246],[-104.86838,30.45393],[-104.86977,30.45899],[-104.86599,30.46686],[-104.86951,30.47411],[-104.86939,30.47889],[-104.87186,30.48065],[-104.86952,30.48473],[-104.86726,30.48502],[-104.86674,30.49433],[-104.87403,30.49522],[-104.87203,30.51099],[-104.87358,30.51372],[-104.87717,30.51113],[-104.87937,30.51764],[-104.88286,30.51671],[-104.88576,30.51829],[-104.88472,30.52021],[-104.88112,30.52081],[-104.8859,30.52439],[-104.8837,30.52612],[-104.88121,30.52422],[-104.88052,30.52968],[-104.88189,30.53205],[-104.88928,30.53521],[-104.89081,30.54088],[-104.88777,30.54402],[-104.8877,30.54636],[-104.89015,30.54596],[-104.89004,30.54916],[-104.89387,30.55056],[-104.89396,30.55183],[-104.89232,30.55143],[-104.89304,30.55293],[-104.89797,30.55461],[-104.89538,30.55928],[-104.89635,30.56356],[-104.89897,30.57049],[-104.90698,30.57714],[-104.90865,30.58358],[-104.91234,30.58577],[-104.91784,30.58501],[-104.91997,30.58724],[-104.92129,30.58975],[-104.91852,30.59741],[-104.92187,30.59862],[-104.92265,30.60341],[-104.92683,30.60498],[-104.93122,30.59879],[-104.93465,30.60017],[-104.93586,30.60629],[-104.94458,30.60293],[-104.94651,30.60455],[-104.95105,30.60422],[-104.95499,30.60933],[-104.95993,30.61048],[-104.96702,30.60805],[-104.97174,30.61008],[-104.97548,30.61438],[-104.9743,30.61657],[-104.97747,30.61812],[-104.98016,30.62197],[-104.97953,30.62876],[-104.98223,30.63017],[-104.98393,30.63483],[-104.98567,30.66237],[-104.99309,30.66495],[-104.99359,30.66682],[-104.99186,30.66844],[-104.99459,30.67052],[-105.00164,30.67273],[-105.00215,30.68089],[-105.00683,30.68613],[-105.01339,30.68257],[-105.01621,30.68291],[-105.01773,30.6851],[-105.02159,30.68145],[-105.02517,30.68136],[-105.02738,30.67899],[-105.03187,30.68094],[-105.03602,30.68647],[-105.0398,30.68863],[-105.04269,30.68737],[-105.04538,30.68887],[-105.04717,30.68801],[-105.04452,30.68401],[-105.0462,30.67987],[-105.04848,30.68038],[-105.04795,30.68212],[-105.05073,30.68219],[-105.0556,30.68536],[-105.05679,30.68777],[-105.06202,30.68593],[-105.06345,30.68884],[-105.06179,30.69524],[-105.06278,30.69847],[-105.06701,30.69917],[-105.06851,30.70371],[-105.07028,30.70174],[-105.08115,30.69991],[-105.08098,30.7015],[-105.08269,30.70187],[-105.0795,30.7043],[-105.08043,30.7079],[-105.08325,30.70988],[-105.08762,30.70994],[-105.08768,30.71547],[-105.09162,30.71721],[-105.09836,30.71652],[-105.09973,30.72195],[-105.10549,30.72364],[-105.10343,30.72905],[-105.10673,30.73221],[-105.10704,30.73032],[-105.10888,30.73006],[-105.11192,30.73326],[-105.10992,30.73939],[-105.1123,30.74044],[-105.11115,30.74364],[-105.11413,30.74599],[-105.11695,30.74304],[-105.12047,30.74371],[-105.12094,30.74594],[-105.11845,30.74971],[-105.12766,30.74784],[-105.12981,30.75044],[-105.14082,30.75218],[-105.14325,30.75498],[-105.15205,30.75139],[-105.15702,30.75385],[-105.16159,30.75205],[-105.16149,30.75613],[-105.15799,30.76126],[-105.15636,30.76974],[-105.16397,30.77157],[-105.16545,30.77313],[-105.16402,30.77464],[-105.16498,30.77846],[-105.16687,30.77965],[-105.17427,30.76755],[-105.17694,30.76798],[-105.18246,30.77632],[-105.18511,30.77698],[-105.1846,30.78155],[-105.18605,30.78443],[-105.19126,30.786],[-105.19495,30.79206],[-105.19985,30.78758],[-105.2064,30.7863],[-105.20867,30.78277],[-105.2118,30.78169],[-105.21661,30.78328],[-105.2197,30.78616],[-105.22007,30.78868],[-105.21744,30.79321],[-105.21296,30.79322],[-105.20957,30.79765],[-105.21322,30.80058],[-105.21495,30.80579],[-105.21809,30.80577],[-105.22714,30.79916],[-105.22886,30.79985],[-105.22836,30.80263],[-105.23001,30.80372],[-105.23514,30.80264],[-105.23819,30.80363],[-105.2443,30.79987],[-105.25003,30.79925],[-105.25292,30.79583],[-105.25733,30.79436],[-105.26411,30.80024],[-105.2668,30.80836],[-105.27192,30.80926],[-105.27589,30.80694],[-105.27962,30.81582],[-105.28261,30.81828],[-105.28834,30.81821],[-105.2894,30.82397],[-105.29179,30.82613],[-105.30034,30.82443],[-105.30084,30.81876],[-105.3064,30.80978],[-105.30874,30.81077],[-105.30801,30.8147],[-105.30945,30.8169],[-105.31167,30.81262],[-105.31698,30.81085],[-105.31879,30.81257],[-105.31611,30.81863],[-105.31891,30.82373],[-105.31818,30.82806],[-105.32411,30.82838],[-105.32738,30.8248],[-105.32992,30.82529],[-105.32793,30.83109],[-105.33726,30.8335],[-105.33934,30.84028],[-105.34565,30.84051],[-105.35203,30.83563],[-105.35444,30.83777],[-105.35345,30.8421],[-105.35982,30.84596],[-105.36171,30.85046],[-105.37167,30.84748],[-105.37496,30.84984],[-105.37761,30.8487],[-105.37716,30.8512],[-105.38333,30.85199],[-105.38489,30.85046],[-105.38728,30.85365],[-105.39207,30.85054],[-105.39409,30.85081],[-105.39502,30.84894],[-105.40006,30.85202],[-105.40176,30.85459],[-105.39895,30.85779],[-105.39483,30.85869],[-105.39459,30.86327],[-105.39602,30.86432],[-105.39382,30.86712],[-105.39503,30.87129],[-105.39138,30.87398],[-105.39353,30.87629],[-105.39968,30.87664],[-105.40432,30.87958],[-105.3993,30.88422],[-105.40008,30.88923],[-105.4041,30.89211],[-105.41195,30.88857],[-105.4107,30.89218],[-105.41397,30.89965],[-105.42598,30.90055],[-105.42978,30.9054],[-105.4413,30.90852],[-105.44502,30.9135],[-105.44452,30.91743],[-105.44677,30.91945],[-105.45157,30.91565],[-105.45322,30.91621],[-105.45443,30.91941],[-105.45153,30.92116],[-105.45171,30.92482],[-105.46501,30.92578],[-105.46664,30.92425],[-105.46763,30.92957],[-105.4707,30.93103],[-105.47109,30.93381],[-105.47607,30.93402],[-105.47824,30.93821],[-105.48191,30.94078],[-105.48648,30.94262],[-105.48835,30.94084],[-105.49176,30.94238],[-105.49154,30.94375],[-105.48824,30.94273],[-105.49008,30.94633],[-105.4939,30.94944],[-105.499,30.95057],[-105.4968,30.95536],[-105.49405,30.9554],[-105.49399,30.95656],[-105.50055,30.96644],[-105.50384,30.96782],[-105.51598,30.96486],[-105.51719,30.96953],[-105.52207,30.97623],[-105.52675,30.97757],[-105.53285,30.98435],[-105.53808,30.98538],[-105.54397,30.98427],[-105.55573,30.98848],[-105.55863,30.99101],[-105.57033,31.00854],[-105.56944,31.01614],[-105.57178,31.01881],[-105.57786,31.01984],[-105.581,31.02585],[-105.57968,31.03572],[-105.58533,31.05725],[-105.59591,31.06493],[-105.59869,31.07455],[-105.60474,31.08373],[-105.62757,31.09863],[-105.64138,31.09791],[-105.64842,31.1156],[-105.71017,31.1366],[-105.71733,31.14159],[-105.71947,31.14895],[-105.74279,31.16492],[-105.76303,31.16408],[-105.77287,31.16649],[-105.78017,31.1826],[-105.77962,31.19025],[-105.78344,31.19805],[-105.79434,31.20212],[-105.81898,31.23073],[-105.8361,31.24724],[-105.85062,31.26507],[-105.854,31.27253],[-105.86975,31.28899],[-105.87604,31.29161],[-105.89407,31.29055],[-105.89639,31.29226],[-105.90349,31.30676],[-105.9082,31.31245],[-105.93172,31.31277],[-105.93838,31.31863],[-105.94814,31.3399],[-105.94587,31.35261],[-105.95437,31.365],[-105.97024,31.36595],[-106.00556,31.39252],[-106.08121,31.39884],[-106.10832,31.4225],[-106.13328,31.42521],[-106.15739,31.43745],[-106.17522,31.45516],[-106.19959,31.46227],[-106.20658,31.46603],[-106.21944,31.48054],[-106.22462,31.50083],[-106.23706,31.51338],[-106.24687,31.54177],[-106.25549,31.54838],[-106.281,31.56198],[-106.28939,31.58802],[-106.30267,31.60993],[-106.30316,31.62059],[-106.30491,31.62428],[-106.33497,31.66394],[-106.3501,31.69681],[-106.37255,31.71249],[-106.38059,31.7314],[-106.4157,31.75071],[-106.4347,31.75486],[-106.45237,31.76457],[-106.46746,31.75948],[-106.47331,31.75041],[-106.48552,31.74761],[-106.49012,31.74855],[-106.50685,31.76105],[-106.51016,31.76108],[-106.51367,31.77052],[-106.52088,31.7736],[-106.52886,31.78133],[-106.52766,31.79035],[-106.533,31.79177],[-106.53587,31.7987],[-106.54376,31.80313],[-106.54709,31.80733],[-106.56297,31.81108],[-106.56333,31.81252],[-106.56682,31.81332],[-106.57102,31.81016],[-106.57712,31.81039],[-106.59118,31.82385],[-106.60295,31.82441],[-106.6055,31.82742],[-106.6018,31.83959],[-106.60193,31.84418],[-106.6086,31.84666],[-106.6148,31.84652],[-106.62581,31.85627],[-106.62843,31.86129],[-106.63607,31.8663],[-106.63578,31.87319],[-106.62973,31.88344],[-106.63401,31.88848],[-106.64623,31.89507],[-106.64614,31.89828],[-106.64077,31.90503],[-106.63398,31.90977],[-106.6245,31.91311],[-106.61906,31.91765],[-106.61601,31.91723],[-106.61323,31.92032],[-106.62481,31.92539],[-106.62914,31.9236],[-106.63024,31.92658],[-106.62591,31.92983],[-106.62255,31.9359],[-106.62405,31.94541],[-106.61573,31.94923],[-106.61478,31.95204],[-106.61523,31.95631],[-106.62338,31.95289],[-106.6257,31.95451],[-106.62496,31.96105],[-106.61998,31.96489],[-106.62003,31.97137],[-106.62302,31.97287],[-106.62712,31.97086],[-106.63088,31.97135],[-106.63906,31.97698],[-106.64037,31.98036],[-106.63735,31.98585],[-106.63192,31.98984],[-106.6241,31.99106],[-106.62001,31.99475],[-106.61898,32.00055],[-106.08631,32.00261],[-105.23036,32.00017],[-103.06465,32.00042],[-103.06484,33.00019],[-103.04368,34.00015],[-103.04079,35.94285],[-103.04176,36.50039],[-100.50025,36.49987]]]]}}]}